projectRcn,projectID,participationId,projectAcronym,role,id,name,WikiOrganization,shortName,activityType,endOfParticipation,ecContribution,country,WikiCountry,street,WikiStreet,city,WikiCity,postCode
230777,956107,956107999859123,EPOC,participant,999859123,University of Paris 1 Pantheon-Sorbonne,http://www.wikidata.org/entity/Q999763,UP1,HES,false,549604.08,France,http://www.wikidata.org/entity/Q142,Institut Cujas,https://www.wikidata.org/entity/Q49480190,Paris,https://www.wikidata.org/entity/Q90,75231
230777,956107,956107999915771,EPOC,participant,999915771,Università Cattolica del Sacro Cuore,http://www.wikidata.org/entity/Q229022,UCSC,HES,false,522999.36,Italy,http://www.wikidata.org/entity/Q38,EduCatt,https://www.wikidata.org/entity/Q19750507,Milan,https://www.wikidata.org/entity/Q490,20123
225599,853394,853394999975426,ALPHA,participant,999975426,University of Leeds,http://www.wikidata.org/entity/Q503424,UNIVLEEDS,HES,false,109695.66,United Kingdom,http://www.wikidata.org/entity/Q145,"53, Woodhouse Lane",https://www.wikidata.org/entity/Q26407920,Leeds,https://www.wikidata.org/entity/Q39121,LS2 9JT
218672,813547,813547999974553,MIDA,participant,999974553,Leiden University,http://www.wikidata.org/entity/Q156598,ULEI,HES,false,265619.88,Netherlands,http://www.wikidata.org/entity/Q55,"Rapenburg 70-74, Leiden",https://www.wikidata.org/entity/Q17339242,Leiden,https://www.wikidata.org/entity/Q33456378,2311 EZ
218672,813547,813547999992110,MIDA,participant,999992110,Stichting Katholieke Universiteit,http://www.wikidata.org/entity/Q1939260,RUMC,HES,false,265619.88,Netherlands,http://www.wikidata.org/entity/Q55,Huize Heijendaal,https://www.wikidata.org/entity/Q2548039,Nijmegen,https://www.wikidata.org/entity/Q13188714,6525 EZ
218672,813547,813547999991334,MIDA,participant,999991334,Katholieke Universiteit Leuven,http://www.wikidata.org/entity/Q833670,KU Leuven,HES,false,256320,Belgium,http://www.wikidata.org/entity/Q31,"Oude Raadhuis, Heenvliet",https://www.wikidata.org/entity/Q17615613,Leuven,https://www.wikidata.org/entity/Q118958,3000
224714,860665,860665999907526,PERFORCE3,participant,999907526,University of Birmingham,http://www.wikidata.org/entity/Q223429,UoB,HES,false,303172.56,United Kingdom,http://www.wikidata.org/entity/Q145,ABC Edgbaston,https://www.wikidata.org/entity/Q38690552,Birmingham,https://www.wikidata.org/entity/Q2256,B15 2TT
224977,857897,857897999985611,e-LADDA,participant,999985611,University of East Anglia,http://www.wikidata.org/entity/Q1045828,UEA,HES,false,303172.56,United Kingdom,http://www.wikidata.org/entity/Q145,"4, Earlham Road",https://www.wikidata.org/entity/Q26653849,Norwich,https://www.wikidata.org/entity/Q130191,NR4 7TJ
224977,857897,857897999903840,e-LADDA,participant,999903840,University of Manchester,http://www.wikidata.org/entity/Q230899,UNIVERSITY OF MANCHESTER,HES,false,303172.56,United Kingdom,http://www.wikidata.org/entity/Q145,"5, Oxford Road",https://www.wikidata.org/entity/Q26488918,Manchester,https://www.wikidata.org/entity/Q18125,M13 9PL
224977,857897,857897999840984,e-LADDA,participant,999840984,University of Lancaster,http://www.wikidata.org/entity/Q262854,Lancaster University,HES,false,303172.56,United Kingdom,http://www.wikidata.org/entity/Q145,Bailrigg House,https://www.wikidata.org/entity/Q26670743,Lancaster,https://www.wikidata.org/entity/Q205905,LA1 4YW
224977,857897,857897999894916,e-LADDA,participant,999894916,University of Porto,http://www.wikidata.org/entity/Q1422903,UPORTO,HES,false,237720.24,Portugal,http://www.wikidata.org/entity/Q45,Cine-Teatro,https://www.wikidata.org/entity/Q37813302,Porto,https://www.wikidata.org/entity/Q36433,4099 002
199996,693289,693289999985417,CoHERE,coordinator,999985417,Newcastle University,http://www.wikidata.org/entity/Q837164,UNEW,HES,false,832594.41,United Kingdom,http://www.wikidata.org/entity/Q145,King's Cinema,https://www.wikidata.org/entity/Q42047859,Newcastle upon Tyne,https://www.wikidata.org/entity/Q1425428,NE1 7RU
199996,693289,693289951097029,CoHERE,participant,951097029,National Museum of World Cultures,http://www.wikidata.org/entity/Q17153751,SNMW,REC,false,79742.5,Netherlands,http://www.wikidata.org/entity/Q55,"Steenstraat 1, Hulst",https://www.wikidata.org/entity/Q17406297,Leiden,https://www.wikidata.org/entity/Q33456378,2312 BS
199996,693289,693289999853400,CoHERE,participant,999853400,Heriot-Watt University,http://www.wikidata.org/entity/Q1610024,HWU,HES,false,234286.25,United Kingdom,http://www.wikidata.org/entity/Q145,Hoyts Riccarton,https://www.wikidata.org/entity/Q37176006,Edinburgh,https://www.wikidata.org/entity/Q23436,EH14 4AS
221876,822625,822625992842046,ADMIGOV,participant,992842046,Addis Ababa University,http://www.wikidata.org/entity/Q1238770,ADDIS ABABA UNIVERSITY,HES,false,41414,Ethiopia,http://www.wikidata.org/entity/Q115,Institute of Ethiopian Studies Addis Ababa University,https://www.wikidata.org/entity/Q55235503,Addis Ababa,https://www.wikidata.org/entity/Q3624,1176
221876,822625,822625999845155,ADMIGOV,participant,999845155,University of Wrocław,http://www.wikidata.org/entity/Q315658,UWr,HES,false,73646.96,Poland,http://www.wikidata.org/entity/Q36,pl. Uniwersytecki 10,https://www.wikidata.org/entity/Q30059830,Wrocław,https://www.wikidata.org/entity/Q1799,50137
221876,822625,822625998331082,ADMIGOV,participant,998331082,American University of Beirut,http://www.wikidata.org/entity/Q469482,AUB,HES,false,75443.38,Luxembourgish,http://www.wikidata.org/entity/Q9051,46th Street – Bliss Street,https://www.wikidata.org/entity/Q2328273,Beirut,https://www.wikidata.org/entity/Q3820,1107 2020
231066,955956,955956999989976,RAPTOR,participant,999989976,Medical University of Vienna,http://www.wikidata.org/entity/Q700731,MUW,HES,false,264207.24,Austria,http://www.wikidata.org/entity/Q40,Spitalgasse 23,https://www.wikidata.org/entity/Q41424995,Vienna,https://www.wikidata.org/entity/Q1741,1090
231066,955956,955956999897729,RAPTOR,participant,999897729,TU Dresden,http://www.wikidata.org/entity/Q158158,TUD,HES,false,252788.4,Germany,http://www.wikidata.org/entity/Q183,Mietshaus Helmholtzstraße 10,https://www.wikidata.org/entity/Q49257829,Dresden,https://www.wikidata.org/entity/Q1731,01069
212968,777682,777682909887161,CANCER,participant,909887161,Bündnis Bürgerenergie e.V.,http://www.wikidata.org/entity/Q47345910,HIH,OTH,false,216000,Italy,http://www.wikidata.org/entity/Q38,Santa Maria dell'Anima,https://www.wikidata.org/entity/Q2140145,Nemi ships,https://www.wikidata.org/entity/Q1190639,00074
197534,671564,671564999974553,ComPat,participant,999974553,Leiden University,http://www.wikidata.org/entity/Q156598,ULEI,HES,false,370710,Netherlands,http://www.wikidata.org/entity/Q55,"Rapenburg 70-74, Leiden",https://www.wikidata.org/entity/Q17339242,Leiden,https://www.wikidata.org/entity/Q33456378,2311 EZ
197534,671564,671564999975620,ComPat,participant,999975620,University College London,http://www.wikidata.org/entity/Q193196,UCL,HES,false,603125,United Kingdom,http://www.wikidata.org/entity/Q145,140 Gower Street,https://www.wikidata.org/entity/Q28803297,London,https://www.wikidata.org/entity/Q84,WC1E 6BT
209739,726225,726225999901609,UVdynamicsProtection,coordinator,999901609,Tel Aviv University,http://www.wikidata.org/entity/Q319239,TAU,HES,false,1971875,Israel,http://www.wikidata.org/entity/Q801,Ramat Aviv Mall,https://www.wikidata.org/entity/Q12066847,Tel Aviv,https://www.wikidata.org/entity/Q33935,69978
218158,785917,785917998331082,PML-THERAPY,participant,998331082,American University of Beirut,http://www.wikidata.org/entity/Q469482,AUB,HES,false,100000,Luxembourgish,http://www.wikidata.org/entity/Q9051,46th Street – Bliss Street,https://www.wikidata.org/entity/Q2328273,Beirut,https://www.wikidata.org/entity/Q3820,1107 2020
200480,678316,678316999901609,OptiQ-CanDo,coordinator,999901609,Tel Aviv University,http://www.wikidata.org/entity/Q319239,TAU,HES,false,1916250,Israel,http://www.wikidata.org/entity/Q801,Ramat Aviv Mall,https://www.wikidata.org/entity/Q12066847,Tel Aviv,https://www.wikidata.org/entity/Q33935,69978
230936,955575,955575999907914,T-OP,participant,999907914,University of Basel,http://www.wikidata.org/entity/Q372608,UNIBAS,HES,false,281276.64,Switzerland,http://www.wikidata.org/entity/Q39,Petersplatz 6,https://www.wikidata.org/entity/Q41259061,Basel,https://www.wikidata.org/entity/Q78,4051
193292,634486,634486999861063,INMARE,participant,999861063,London School of Economics and Political Science,http://www.wikidata.org/entity/Q174570,LSE,HES,false,159998.75,United Kingdom,http://www.wikidata.org/entity/Q145,"1, 2 And 3, The Street",https://www.wikidata.org/entity/Q26591516,London,https://www.wikidata.org/entity/Q84,WC2A 2AE
193292,634486,634486918419281,INMARE,participant,918419281,Bayer,http://www.wikidata.org/entity/Q152051,Bayer AG,PRC,false,227150,Germany,http://www.wikidata.org/entity/Q183,Kaiser-Wilhelm-Allee 10 (Wuppertal),https://www.wikidata.org/entity/Q64865839,Leverkusen,https://www.wikidata.org/entity/Q2938,51373
193292,634486,634486999823815,INMARE,coordinator,999823815,Bangor University,http://www.wikidata.org/entity/Q790029,BANGOR,HES,false,733411.25,United Kingdom,http://www.wikidata.org/entity/Q145,"1, College Road",https://www.wikidata.org/entity/Q26543203,Bangor,https://www.wikidata.org/entity/Q234178,LL57 2DG
193366,636012,636012998928796,ELIPTIC,coordinator,998928796,Free Hanseatic City of Bremen,http://www.wikidata.org/entity/Q1209,FHB,PUB,false,522406.25,Germany,http://www.wikidata.org/entity/Q183,Theaterhaus am Lindenauer Markt,https://www.wikidata.org/entity/Q49285292,Free Hanseatic City of Bremen,https://www.wikidata.org/entity/Q1209,28195
193160,633080,633080999978045,MACC-III,participant,999978045,NUI Galway,http://www.wikidata.org/entity/Q644478,NUI GALWAY,HES,false,10000,Ireland,http://www.wikidata.org/entity/Q27,Wolfson College,https://www.wikidata.org/entity/Q1244726,Galway,https://www.wikidata.org/entity/Q129610,H91
193160,633080,633080998059094,MACC-III,participant,998059094,Deutscher Wetterdienst,http://www.wikidata.org/entity/Q325859,DWD,PUB,false,79897,Germany,http://www.wikidata.org/entity/Q183,Mietshaus,https://www.wikidata.org/entity/Q41313454,Offenbach am Main,https://www.wikidata.org/entity/Q3042,63067
193160,633080,633080999975426,MACC-III,participant,999975426,University of Leeds,http://www.wikidata.org/entity/Q503424,UNIVLEEDS,HES,false,68662,United Kingdom,http://www.wikidata.org/entity/Q145,"53, Woodhouse Lane",https://www.wikidata.org/entity/Q26407920,Leeds,https://www.wikidata.org/entity/Q39121,LS2 9JT
193160,633080,633080999981246,MACC-III,participant,999981246,Association pour la recherche et le développement des méthodes et processus industriels (France),http://www.wikidata.org/entity/Q20828322,ARMINES,REC,false,141250,France,http://www.wikidata.org/entity/Q142,Hôtel de Vendôme,https://www.wikidata.org/entity/Q772886,Paris,https://www.wikidata.org/entity/Q90,75272
193160,633080,633080999985514,MACC-III,participant,999985514,University of Leicester,http://www.wikidata.org/entity/Q1333399,ULEIC,HES,false,20000,United Kingdom,http://www.wikidata.org/entity/Q145,Wolfson College,https://www.wikidata.org/entity/Q1244726,Leicester,https://www.wikidata.org/entity/Q83065,LE1 7RH
193160,633080,633080999981052,MACC-III,participant,999981052,King's College London,http://www.wikidata.org/entity/Q245247,KCL,HES,false,60000,United Kingdom,http://www.wikidata.org/entity/Q145,Strand Theater,https://www.wikidata.org/entity/Q43017274,London,https://www.wikidata.org/entity/Q84,WC2R 2LS
193300,634588,634588997826391,NOMORFILM,participant,997826391,University of Coimbra,http://www.wikidata.org/entity/Q368643,UNIVERSIDADE DE COIMBRA,HES,false,505821,Portugal,http://www.wikidata.org/entity/Q45,Paços da Universidade ou Paços das Escolas,https://www.wikidata.org/entity/Q66942404,Coimbra,https://www.wikidata.org/entity/Q45412,3001 451
193300,634588,634588999848647,NOMORFILM,participant,999848647,University of Oviedo,http://www.wikidata.org/entity/Q2303432,UNIOVI,HES,false,575288,Spain,http://www.wikidata.org/entity/Q29,"San Frantzisko kalea, 3",https://www.wikidata.org/entity/Q66317932,Oviedo,https://www.wikidata.org/entity/Q1813449,33003
193251,633692,633692999747670,SUSFANS,participant,999747670,Centre for European Policy Studies,http://www.wikidata.org/entity/Q918289,CEPS,REC,false,250000,Belgium,http://www.wikidata.org/entity/Q31,Hoekgebouw in neoclassicistische stijl,https://www.wikidata.org/entity/Q42416608,Brussels,https://www.wikidata.org/entity/Q239,1000
193349,635761,635761999876389,PrimeFish,participant,999876389,University of Stirling,http://www.wikidata.org/entity/Q963530,U STIRLING,HES,false,322216.25,United Kingdom,http://www.wikidata.org/entity/Q145,radix character,https://www.wikidata.org/entity/Q6575377,Stirling,https://www.wikidata.org/entity/Q182923,FK9 4LA
195356,656908,656908999866883,NIMBLIS,coordinator,999866883,University of Vienna,http://www.wikidata.org/entity/Q165980,UNIVIE,HES,false,166156.8,Austria,http://www.wikidata.org/entity/Q40,"Universitätsring 12, Vienna",https://www.wikidata.org/entity/Q38073054,Vienna,https://www.wikidata.org/entity/Q1741,1010
204126,681808,681808999981052,CIL2015,coordinator,999981052,King's College London,http://www.wikidata.org/entity/Q245247,KCL,HES,false,1993802.59,United Kingdom,http://www.wikidata.org/entity/Q145,Strand Theater,https://www.wikidata.org/entity/Q43017274,London,https://www.wikidata.org/entity/Q84,WC2R 2LS
210764,116064,116064999989976,ITCC-P4,participant,999989976,Medical University of Vienna,http://www.wikidata.org/entity/Q700731,MUW,HES,false,131075,Austria,http://www.wikidata.org/entity/Q40,Spitalgasse 23,https://www.wikidata.org/entity/Q41424995,Vienna,https://www.wikidata.org/entity/Q1741,1090
195633,658625,658625999903840,HAT-MOZ-sphere,coordinator,999903840,University of Manchester,http://www.wikidata.org/entity/Q230899,UNIVERSITY OF MANCHESTER,HES,false,195454.8,United Kingdom,http://www.wikidata.org/entity/Q145,"5, Oxford Road",https://www.wikidata.org/entity/Q26488918,Manchester,https://www.wikidata.org/entity/Q18125,M13 9PL
205528,721746,721746999985417,TransPot,participant,999985417,Newcastle University,http://www.wikidata.org/entity/Q837164,UNEW,HES,false,273287.88,United Kingdom,http://www.wikidata.org/entity/Q145,King's Cinema,https://www.wikidata.org/entity/Q42047859,Newcastle upon Tyne,https://www.wikidata.org/entity/Q1425428,NE1 7RU
205528,721746,721746999974165,TransPot,coordinator,999974165,University of Glasgow,http://www.wikidata.org/entity/Q192775,UGLA,HES,false,273287.88,United Kingdom,http://www.wikidata.org/entity/Q145,54 University Avenue,https://www.wikidata.org/entity/Q24259376,Glasgow,https://www.wikidata.org/entity/Q4093,G12 8QQ
197831,637069,637069999901609,MetCAF,coordinator,999901609,Tel Aviv University,http://www.wikidata.org/entity/Q319239,TAU,HES,false,1281958.75,Israel,http://www.wikidata.org/entity/Q801,Ramat Aviv Mall,https://www.wikidata.org/entity/Q12066847,Tel Aviv,https://www.wikidata.org/entity/Q33935,69978
221249,853850,853850999989976,ECMO-BIOMARKER,participant,999989976,Medical University of Vienna,http://www.wikidata.org/entity/Q700731,MUW,HES,false,164248.75,Austria,http://www.wikidata.org/entity/Q40,Spitalgasse 23,https://www.wikidata.org/entity/Q41424995,Vienna,https://www.wikidata.org/entity/Q1741,1090
229917,899587,899587999649506,STORMYTUNE,participant,999649506,Palacký University Olomouc,http://www.wikidata.org/entity/Q1637611,UP,HES,false,313750,Czech Republic,http://www.wikidata.org/entity/Q213,Křížkovského 2,https://www.wikidata.org/entity/Q31847898,Olomouc,https://www.wikidata.org/entity/Q81137,771 47
193908,642414,642414999979694,TargetCaRe,participant,999979694,Cardiff University,http://www.wikidata.org/entity/Q1035745,CARDIFF UNIVERSITY,HES,false,273287.88,United Kingdom,http://www.wikidata.org/entity/Q145,"36, St John's Road",https://www.wikidata.org/entity/Q26646978,Cardiff,https://www.wikidata.org/entity/Q10690,CF24 ODE
206999,721567,721567999981052,CAPICE,participant,999981052,King's College London,http://www.wikidata.org/entity/Q245247,KCL,HES,false,273287.88,United Kingdom,http://www.wikidata.org/entity/Q145,Strand Theater,https://www.wikidata.org/entity/Q43017274,London,https://www.wikidata.org/entity/Q84,WC2R 2LS
218416,813124,813124999978336,ECORISK2050,participant,999978336,University of York,http://www.wikidata.org/entity/Q967165,UNIVERSITY OF YORK,HES,false,606345.12,United Kingdom,http://www.wikidata.org/entity/Q145,Heslington House,https://www.wikidata.org/entity/Q26554017,"South Bank, York",https://www.wikidata.org/entity/Q7566231,YO10 5DD
200472,654462,654462999853400,STEMM-CCS,participant,999853400,Heriot-Watt University,http://www.wikidata.org/entity/Q1610024,HWU,HES,false,482010,United Kingdom,http://www.wikidata.org/entity/Q145,Hoyts Riccarton,https://www.wikidata.org/entity/Q37176006,Edinburgh,https://www.wikidata.org/entity/Q23436,EH14 4AS
200472,654462,654462999975329,STEMM-CCS,participant,999975329,University of Southampton,http://www.wikidata.org/entity/Q76473,SOUTHAMPTON,HES,false,2440750,United Kingdom,http://www.wikidata.org/entity/Q145,Highfield,https://www.wikidata.org/entity/Q26281645,Southampton,https://www.wikidata.org/entity/Q79848,SO17 1BJ
200472,654462,654462898797054,STEMM-CCS,participant,898797054,National Oceanography Centre,http://www.wikidata.org/entity/Q12812368,NOC (NEW),REC,false,1030610.51,United Kingdom,http://www.wikidata.org/entity/Q145,Open-air museum Skansen,https://www.wikidata.org/entity/Q725108,Southampton,https://www.wikidata.org/entity/Q79848,SO14 3ZH
208548,741316,741316999981052,TeleoLogic,coordinator,999981052,King's College London,http://www.wikidata.org/entity/Q245247,KCL,HES,false,183454.8,United Kingdom,http://www.wikidata.org/entity/Q145,Strand Theater,https://www.wikidata.org/entity/Q43017274,London,https://www.wikidata.org/entity/Q84,WC2R 2LS
230125,952379,952379998959642,SurfBio,participant,998959642,University of Burgos,http://www.wikidata.org/entity/Q1510657,UBU,HES,false,175000,Spain,http://www.wikidata.org/entity/Q29,Hospital del Rey,https://www.wikidata.org/entity/Q9004968,Burgos,https://www.wikidata.org/entity/Q9580,09001
211593,776900,776900999440762,DEPART2050,coordinator,999440762,Cranfield University,http://www.wikidata.org/entity/Q181177,CU,HES,false,241000,United Kingdom,http://www.wikidata.org/entity/Q145,"1, College Road",https://www.wikidata.org/entity/Q26543203,Cranfield,https://www.wikidata.org/entity/Q1522979,MK43 0AL
202977,706274,706274999455894,AS-ABA,coordinator,999455894,Calouste Gulbenkian Foundation,http://www.wikidata.org/entity/Q3052794,FCG-IGC,REC,false,148635.6,Portugal,http://www.wikidata.org/entity/Q45,"Prédio na Avenida de Berna, 4-4B",https://www.wikidata.org/entity/Q98969079,Lisbon,https://www.wikidata.org/entity/Q597,1000
199957,691728,691728999974165,DESTRESS,participant,999974165,University of Glasgow,http://www.wikidata.org/entity/Q192775,UGLA,HES,false,395107.5,United Kingdom,http://www.wikidata.org/entity/Q145,54 University Avenue,https://www.wikidata.org/entity/Q24259376,Glasgow,https://www.wikidata.org/entity/Q4093,G12 8QQ
203394,691503,691503999612161,BeLEADFREE,participant,999612161,Coventry University,http://www.wikidata.org/entity/Q1138080,COVENTRY UNIVERSITY,HES,false,249641.25,United Kingdom,http://www.wikidata.org/entity/Q145,"6, Priory Street",https://www.wikidata.org/entity/Q26340152,Coventry,https://www.wikidata.org/entity/Q6225,CV1 5FB
223215,817683,817683999991334,FOX,participant,999991334,Katholieke Universiteit Leuven,http://www.wikidata.org/entity/Q833670,KU Leuven,HES,false,430750,Belgium,http://www.wikidata.org/entity/Q31,"Oude Raadhuis, Heenvliet",https://www.wikidata.org/entity/Q17615613,Leuven,https://www.wikidata.org/entity/Q118958,3000
200305,693651,693651999991334,Science2Society,coordinator,999991334,Katholieke Universiteit Leuven,http://www.wikidata.org/entity/Q833670,KU Leuven,HES,false,234366.2,Belgium,http://www.wikidata.org/entity/Q31,"Oude Raadhuis, Heenvliet",https://www.wikidata.org/entity/Q17615613,Leuven,https://www.wikidata.org/entity/Q118958,3000
198514,675587,675587999974165,STREAM,participant,999974165,University of Glasgow,http://www.wikidata.org/entity/Q192775,UGLA,HES,false,273287.88,United Kingdom,http://www.wikidata.org/entity/Q145,54 University Avenue,https://www.wikidata.org/entity/Q24259376,Glasgow,https://www.wikidata.org/entity/Q4093,G12 8QQ
231303,101000828,101000828961360405,HyPErFarm,participant,961360405,University of Applied Sciences Offenburg,http://www.wikidata.org/entity/Q1622133,HSO,HES,false,366527,Germany,http://www.wikidata.org/entity/Q183,Wohnstallhaus eines Dreiseithofes Badstraße 24,https://www.wikidata.org/entity/Q49617811,Offenburg,https://www.wikidata.org/entity/Q4044,77652
231303,101000828,101000828999991334,HyPErFarm,coordinator,999991334,Katholieke Universiteit Leuven,http://www.wikidata.org/entity/Q833670,KU Leuven,HES,false,1516420,Belgium,http://www.wikidata.org/entity/Q31,"Oude Raadhuis, Heenvliet",https://www.wikidata.org/entity/Q17615613,Leuven,https://www.wikidata.org/entity/Q118958,3000
218572,818182,818182999618660,SmartAgriHubs,participant,999618660,Waterford Institute of Technology,http://www.wikidata.org/entity/Q7974025,WIT,HES,false,140000,Ireland,http://www.wikidata.org/entity/Q27,Cork Western Road railway station,https://www.wikidata.org/entity/Q5170831,Waterford,https://www.wikidata.org/entity/Q183551,X91
218572,818182,818182999915771,SmartAgriHubs,participant,999915771,Università Cattolica del Sacro Cuore,http://www.wikidata.org/entity/Q229022,UCSC,HES,false,80000,Italy,http://www.wikidata.org/entity/Q38,EduCatt,https://www.wikidata.org/entity/Q19750507,Milan,https://www.wikidata.org/entity/Q490,20123
194257,644871,644871999594216,MusicBricks,participant,999594216,Institute for Research and Coordination Acoustic/Music,http://www.wikidata.org/entity/Q579314,IRCAM,REC,false,166250,France,http://www.wikidata.org/entity/Q142,"11 rue Saint-Merri, Paris",https://www.wikidata.org/entity/Q22921697,Paris,https://www.wikidata.org/entity/Q90,75004
207024,732112,732112999594216,VERTIGO,coordinator,999594216,Institute for Research and Coordination Acoustic/Music,http://www.wikidata.org/entity/Q579314,IRCAM,REC,false,1472875,France,http://www.wikidata.org/entity/Q142,"11 rue Saint-Merri, Paris",https://www.wikidata.org/entity/Q22921697,Paris,https://www.wikidata.org/entity/Q90,75004
223401,847040,847040999974747,ICCEE,participant,999974747,University of Stuttgart,http://www.wikidata.org/entity/Q122453,USTUTT,HES,false,159375,Germany,http://www.wikidata.org/entity/Q183,Keplerstraße 7 Regensburg,https://www.wikidata.org/entity/Q41277167,Stuttgart,https://www.wikidata.org/entity/Q1022,70174
210516,730308,730308999991334,PolyCE,participant,999991334,Katholieke Universiteit Leuven,http://www.wikidata.org/entity/Q833670,KU Leuven,HES,false,750500,Belgium,http://www.wikidata.org/entity/Q31,"Oude Raadhuis, Heenvliet",https://www.wikidata.org/entity/Q17615613,Leuven,https://www.wikidata.org/entity/Q118958,3000
219146,825730,825730999907914,ENDOSCAPE,participant,999907914,University of Basel,http://www.wikidata.org/entity/Q372608,UNIBAS,HES,false,261750,Switzerland,http://www.wikidata.org/entity/Q39,Petersplatz 6,https://www.wikidata.org/entity/Q41259061,Basel,https://www.wikidata.org/entity/Q78,4051
210800,737459,737459918570116,Productive4.0,participant,918570116,SEB Group,http://www.wikidata.org/entity/Q975655,09D SEB,PRC,false,191700,Sweden,http://www.wikidata.org/entity/Q34,Kungsträdgårdsgatan 8,https://www.wikidata.org/entity/Q10550375,Stockholm,https://www.wikidata.org/entity/Q1754,106 40
210800,737459,737459975398439,Productive4.0,participant,975398439,Østfold University College,http://www.wikidata.org/entity/Q616752,HIOF,HES,false,161087.5,Norway,http://www.wikidata.org/entity/Q20,Remmene 8:1,https://www.wikidata.org/entity/Q29560413,Fredrikshald,https://www.wikidata.org/entity/Q23915191,1757
210800,737459,737459999878135,Productive4.0,participant,999878135,University of Mannheim,http://www.wikidata.org/entity/Q317070,Universität Mannheim,HES,false,53287.5,Germany,http://www.wikidata.org/entity/Q183,Schloss,https://www.wikidata.org/entity/Q573708,Mannheim,https://www.wikidata.org/entity/Q2119,68161
210800,737459,737459999791029,Productive4.0,participant,999791029,TTTech Computertechnik (Austria),http://www.wikidata.org/entity/Q30285483,TTTECH,PRC,false,205041.5,Austria,http://www.wikidata.org/entity/Q40,Wohnhaus der sogenannten „Kalichschen Gartennehrung“ ohne Saalanbau (ehemalige Schankwirtschaft Max Harnapp) Schönbrunner Straße 7,https://www.wikidata.org/entity/Q49398610,Vienna,https://www.wikidata.org/entity/Q1741,1040
210800,737459,737459999897729,Productive4.0,participant,999897729,TU Dresden,http://www.wikidata.org/entity/Q158158,TUD,HES,false,168129.06,Germany,http://www.wikidata.org/entity/Q183,Mietshaus Helmholtzstraße 10,https://www.wikidata.org/entity/Q49257829,Dresden,https://www.wikidata.org/entity/Q1731,01069
199837,687645,687645929992448,ORPHEUS,participant,929992448,MAGIX Software GmbH,http://www.wikidata.org/entity/Q19697831,MAGIX,PRC,false,377320,Germany,http://www.wikidata.org/entity/Q183,Quedlinburger Straße 18,https://www.wikidata.org/entity/Q22693551,Berlin,https://www.wikidata.org/entity/Q64,10589
199837,687645,687645999594216,ORPHEUS,participant,999594216,Institute for Research and Coordination Acoustic/Music,http://www.wikidata.org/entity/Q579314,IRCAM,REC,false,235000,France,http://www.wikidata.org/entity/Q142,"11 rue Saint-Merri, Paris",https://www.wikidata.org/entity/Q22921697,Paris,https://www.wikidata.org/entity/Q90,75004
220024,826106,826106999866883,InteropEHRate,participant,999866883,University of Vienna,http://www.wikidata.org/entity/Q165980,UNIVIE,HES,false,343632.5,Austria,http://www.wikidata.org/entity/Q40,"Universitätsring 12, Vienna",https://www.wikidata.org/entity/Q38073054,Vienna,https://www.wikidata.org/entity/Q1741,1010
228008,875028,875028999893461,SUBLIME,participant,999893461,Umicore,http://www.wikidata.org/entity/Q902769,UMICORE,PRC,false,317412.5,Belgium,http://www.wikidata.org/entity/Q31,"Maison, 47 rue Holgate, Carentan",https://www.wikidata.org/entity/Q22963196,Brussels,https://www.wikidata.org/entity/Q239,1000
230365,952463,952463999451432,UMA3,coordinator,999451432,University of Miskolc,http://www.wikidata.org/entity/Q729786,UNIVERSITY OF MISKOLC,HES,false,223125,Hungary,http://www.wikidata.org/entity/Q28,Egyetemváros,https://www.wikidata.org/entity/Q988146,Miskolc,https://www.wikidata.org/entity/Q102397,3515
220539,828902,828902999897729,E.T.PACK,participant,999897729,TU Dresden,http://www.wikidata.org/entity/Q158158,TUD,HES,false,699275,Germany,http://www.wikidata.org/entity/Q183,Mietshaus Helmholtzstraße 10,https://www.wikidata.org/entity/Q49257829,Dresden,https://www.wikidata.org/entity/Q1731,01069
212418,774477,774477999897729,MAtchUP,participant,999897729,TU Dresden,http://www.wikidata.org/entity/Q158158,TUD,HES,false,502500,Germany,http://www.wikidata.org/entity/Q183,Mietshaus Helmholtzstraße 10,https://www.wikidata.org/entity/Q49257829,Dresden,https://www.wikidata.org/entity/Q1731,01069
218019,812954,812954998511114,EUROoC,participant,998511114,Jena University Hospital,http://www.wikidata.org/entity/Q2496390,JUH,HES,false,505576.8,Germany,http://www.wikidata.org/entity/Q183,Wohnhaus (Umgebinde) Bachstraße 18,https://www.wikidata.org/entity/Q49422135,Jena,https://www.wikidata.org/entity/Q3150,07743
209517,741769,741769999516519,PL-ERADays,participant,999516519,Tadeusz Kościuszko University of Technology,http://www.wikidata.org/entity/Q931642,PK,HES,false,9930,Poland,http://www.wikidata.org/entity/Q36,6 Warszawska Street in Katowice,https://www.wikidata.org/entity/Q30063902,Kraków,https://www.wikidata.org/entity/Q31487,31 155
194166,644187,644187999838947,RAGE,participant,999838947,University of Bolton,http://www.wikidata.org/entity/Q1683230,UBOL,HES,false,711775,United Kingdom,http://www.wikidata.org/entity/Q145,"3, Deane Road",https://www.wikidata.org/entity/Q26463977,Bolton,https://www.wikidata.org/entity/Q184579,BL3 5AB
211441,764805,764805972778178,EU HEROES,coordinator,972778178,Ministry of Economic Affairs and Climate Policy,http://www.wikidata.org/entity/Q2986560,EZ RVO,PUB,false,187416.25,Netherlands,http://www.wikidata.org/entity/Q55,"Bezuidenhoutseweg 73, The Hague",https://www.wikidata.org/entity/Q18812987,The Hague,https://www.wikidata.org/entity/Q36600,2595 AC
211071,761579,761579999618660,TERAPOD,coordinator,999618660,Waterford Institute of Technology,http://www.wikidata.org/entity/Q7974025,WIT,HES,false,551875,Ireland,http://www.wikidata.org/entity/Q27,Cork Western Road railway station,https://www.wikidata.org/entity/Q5170831,Waterford,https://www.wikidata.org/entity/Q183551,X91
211071,761579,761579999974165,TERAPOD,participant,999974165,University of Glasgow,http://www.wikidata.org/entity/Q192775,UGLA,HES,false,626722.5,United Kingdom,http://www.wikidata.org/entity/Q145,54 University Avenue,https://www.wikidata.org/entity/Q24259376,Glasgow,https://www.wikidata.org/entity/Q4093,G12 8QQ
211071,761579,761579999975620,TERAPOD,participant,999975620,University College London,http://www.wikidata.org/entity/Q193196,UCL,HES,false,445025,United Kingdom,http://www.wikidata.org/entity/Q145,140 Gower Street,https://www.wikidata.org/entity/Q28803297,London,https://www.wikidata.org/entity/Q84,WC1E 6BT
194215,644526,644526999856989,iCIRRUS,participant,999856989,University of Essex,http://www.wikidata.org/entity/Q1075104,UESSEX,HES,false,458638,United Kingdom,http://www.wikidata.org/entity/Q145,Gate Lodge To East Of Wivenhoe Park,https://www.wikidata.org/entity/Q26556967,Colchester,https://www.wikidata.org/entity/Q575411,CO4 3SQ
211081,761913,761913999589657,SLICENET,participant,999589657,University of the West of Scotland,http://www.wikidata.org/entity/Q1296153,UNIVERSITY OF THE WEST OF SCOTLAND,HES,false,664498.75,United Kingdom,http://www.wikidata.org/entity/Q145,High Street,https://www.wikidata.org/entity/Q2612899,Paisley,https://www.wikidata.org/entity/Q1022986,PA1 2BE
211094,762119,762119999840984,ULTRAWAVE,coordinator,999840984,University of Lancaster,http://www.wikidata.org/entity/Q262854,Lancaster University,HES,false,681553.75,United Kingdom,http://www.wikidata.org/entity/Q145,Bailrigg House,https://www.wikidata.org/entity/Q26670743,Lancaster,https://www.wikidata.org/entity/Q205905,LA1 4YW
194233,644678,644678999840984,TWEETHER,coordinator,999840984,University of Lancaster,http://www.wikidata.org/entity/Q262854,Lancaster University,HES,false,713538.11,United Kingdom,http://www.wikidata.org/entity/Q145,Bailrigg House,https://www.wikidata.org/entity/Q26670743,Lancaster,https://www.wikidata.org/entity/Q205905,LA1 4YW
211070,761557,761557968966466,NGPaaS,participant,968966466,Virtual Open Systems (France),http://www.wikidata.org/entity/Q30292539,VOSYS,PRC,false,488687.5,France,http://www.wikidata.org/entity/Q142,"Immeuble, 2 rue Lakanal, Sarlat-la-Canéda",https://www.wikidata.org/entity/Q22988038,Grenoble,https://www.wikidata.org/entity/Q1289,38000
193871,641985,641985999853400,5G Wireless,participant,999853400,Heriot-Watt University,http://www.wikidata.org/entity/Q1610024,HWU,HES,false,546575.76,United Kingdom,http://www.wikidata.org/entity/Q145,Hoyts Riccarton,https://www.wikidata.org/entity/Q37176006,Edinburgh,https://www.wikidata.org/entity/Q23436,EH14 4AS
193871,641985,641985999897729,5G Wireless,participant,999897729,TU Dresden,http://www.wikidata.org/entity/Q158158,TUD,HES,false,498432.96,Germany,http://www.wikidata.org/entity/Q183,Mietshaus Helmholtzstraße 10,https://www.wikidata.org/entity/Q49257829,Dresden,https://www.wikidata.org/entity/Q1731,01069
211057,761338,761338999618660,To-Euro-5G,participant,999618660,Waterford Institute of Technology,http://www.wikidata.org/entity/Q7974025,WIT,HES,false,178125,Ireland,http://www.wikidata.org/entity/Q27,Cork Western Road railway station,https://www.wikidata.org/entity/Q5170831,Waterford,https://www.wikidata.org/entity/Q183551,X91
217811,814523,814523999974747,ThoR,participant,999974747,University of Stuttgart,http://www.wikidata.org/entity/Q122453,USTUTT,HES,false,184000,Germany,http://www.wikidata.org/entity/Q183,Keplerstraße 7 Regensburg,https://www.wikidata.org/entity/Q41277167,Stuttgart,https://www.wikidata.org/entity/Q1022,70174
198732,671562,671562999975329,5G-ENSURE,participant,999975329,University of Southampton,http://www.wikidata.org/entity/Q76473,SOUTHAMPTON,HES,false,553375,United Kingdom,http://www.wikidata.org/entity/Q145,Highfield,https://www.wikidata.org/entity/Q26281645,Southampton,https://www.wikidata.org/entity/Q79848,SO17 1BJ
215129,793140,793140999975329,WPCN,coordinator,999975329,University of Southampton,http://www.wikidata.org/entity/Q76473,SOUTHAMPTON,HES,false,195454.8,United Kingdom,http://www.wikidata.org/entity/Q145,Highfield,https://www.wikidata.org/entity/Q26281645,Southampton,https://www.wikidata.org/entity/Q79848,SO17 1BJ
197341,671566,671566999846222,SUPERFLUIDITY,participant,999846222,Ben-Gurion University of the Negev,http://www.wikidata.org/entity/Q737332,BGU,HES,false,233750,Israel,http://www.wikidata.org/entity/Q801,radix character,https://www.wikidata.org/entity/Q6575377,Beersheba,https://www.wikidata.org/entity/Q41843,84105
197341,671566,671566999897729,SUPERFLUIDITY,participant,999897729,TU Dresden,http://www.wikidata.org/entity/Q158158,TUD,HES,false,284500,Germany,http://www.wikidata.org/entity/Q183,Mietshaus Helmholtzstraße 10,https://www.wikidata.org/entity/Q49257829,Dresden,https://www.wikidata.org/entity/Q1731,01069
197350,671704,671704999856989,CHARISMA,participant,999856989,University of Essex,http://www.wikidata.org/entity/Q1075104,UESSEX,HES,false,647772.5,United Kingdom,http://www.wikidata.org/entity/Q145,Gate Lodge To East Of Wivenhoe Park,https://www.wikidata.org/entity/Q26556967,Colchester,https://www.wikidata.org/entity/Q575411,CO4 3SQ
215169,793529,793529999979694,PABLO,coordinator,999979694,Cardiff University,http://www.wikidata.org/entity/Q1035745,CARDIFF UNIVERSITY,HES,false,195454.8,United Kingdom,http://www.wikidata.org/entity/Q145,"36, St John's Road",https://www.wikidata.org/entity/Q26646978,Cardiff,https://www.wikidata.org/entity/Q10690,CF24 ODE
223010,856777,856777999618660,Full5G,participant,999618660,Waterford Institute of Technology,http://www.wikidata.org/entity/Q7974025,WIT,HES,false,123750,Ireland,http://www.wikidata.org/entity/Q27,Cork Western Road railway station,https://www.wikidata.org/entity/Q5170831,Waterford,https://www.wikidata.org/entity/Q183551,X91
224095,833685,833685999842730,SPIDER,participant,999842730,"City, University of London",http://www.wikidata.org/entity/Q1094046,CITY,HES,false,315383.75,United Kingdom,http://www.wikidata.org/entity/Q145,The Deco,https://www.wikidata.org/entity/Q31678475,London,https://www.wikidata.org/entity/Q84,EC1V 0HB
197338,671517,671517999975620,SONATA,participant,999975620,University College London,http://www.wikidata.org/entity/Q193196,UCL,HES,false,849375,United Kingdom,http://www.wikidata.org/entity/Q145,140 Gower Street,https://www.wikidata.org/entity/Q28803297,London,https://www.wikidata.org/entity/Q84,WC1E 6BT
200285,675891,675891999974068,SCAVENGE,participant,999974068,University of Strathclyde,http://www.wikidata.org/entity/Q1859178,USTRAT,HES,false,273287.88,United Kingdom,http://www.wikidata.org/entity/Q145,15 Richmond Street,https://www.wikidata.org/entity/Q61039527,Glasgow,https://www.wikidata.org/entity/Q4093,G1 1XQ
213028,778384,778384999974553,COLING,participant,999974553,Leiden University,http://www.wikidata.org/entity/Q156598,ULEI,HES,false,207000,Netherlands,http://www.wikidata.org/entity/Q55,"Rapenburg 70-74, Leiden",https://www.wikidata.org/entity/Q17339242,Leiden,https://www.wikidata.org/entity/Q33456378,2311 EZ
212213,768166,768166999974553,HypoRuLight,coordinator,999974553,Leiden University,http://www.wikidata.org/entity/Q156598,ULEI,HES,false,150000,Netherlands,http://www.wikidata.org/entity/Q55,"Rapenburg 70-74, Leiden",https://www.wikidata.org/entity/Q17339242,Leiden,https://www.wikidata.org/entity/Q33456378,2311 EZ
220018,825510,825510999903840,ESCALON,participant,999903840,University of Manchester,http://www.wikidata.org/entity/Q230899,UNIVERSITY OF MANCHESTER,HES,false,35000,United Kingdom,http://www.wikidata.org/entity/Q145,"5, Oxford Road",https://www.wikidata.org/entity/Q26488918,Manchester,https://www.wikidata.org/entity/Q18125,M13 9PL
199576,678461,678461999846222,AcetyLys,coordinator,999846222,Ben-Gurion University of the Negev,http://www.wikidata.org/entity/Q737332,BGU,HES,false,1499375,Israel,http://www.wikidata.org/entity/Q801,radix character,https://www.wikidata.org/entity/Q6575377,Beersheba,https://www.wikidata.org/entity/Q41843,84105
210920,724281,724281999992110,Secret Surface,coordinator,999992110,Stichting Katholieke Universiteit,http://www.wikidata.org/entity/Q1939260,RUMC,HES,false,2000000,Netherlands,http://www.wikidata.org/entity/Q55,Huize Heijendaal,https://www.wikidata.org/entity/Q2548039,Nijmegen,https://www.wikidata.org/entity/Q13188714,6525 EZ
197243,641458,641458999975426,MELGEN,coordinator,999975426,University of Leeds,http://www.wikidata.org/entity/Q503424,UNIVLEEDS,HES,false,819863.64,United Kingdom,http://www.wikidata.org/entity/Q145,"53, Woodhouse Lane",https://www.wikidata.org/entity/Q26407920,Leeds,https://www.wikidata.org/entity/Q39121,LS2 9JT
211906,766030,766030999981052,CONTRA,participant,999981052,King's College London,http://www.wikidata.org/entity/Q245247,KCL,HES,false,546575.76,United Kingdom,http://www.wikidata.org/entity/Q145,Strand Theater,https://www.wikidata.org/entity/Q43017274,London,https://www.wikidata.org/entity/Q84,WC2R 2LS
226765,855741,855741999989976,DDREAMM,participant,999989976,Medical University of Vienna,http://www.wikidata.org/entity/Q700731,MUW,HES,false,2954000,Austria,http://www.wikidata.org/entity/Q40,Spitalgasse 23,https://www.wikidata.org/entity/Q41424995,Vienna,https://www.wikidata.org/entity/Q1741,1090
193314,634928,634928999992110,GLAM,participant,999992110,Stichting Katholieke Universiteit,http://www.wikidata.org/entity/Q1939260,RUMC,HES,false,283316,Netherlands,http://www.wikidata.org/entity/Q55,Huize Heijendaal,https://www.wikidata.org/entity/Q2548039,Nijmegen,https://www.wikidata.org/entity/Q13188714,6525 EZ
205832,681679,681679903730668,PhotoMedMet,coordinator,903730668,Chimie ParisTech,http://www.wikidata.org/entity/Q2963665,ENSCP,HES,false,2000000,France,http://www.wikidata.org/entity/Q142,"maison, 11 rue Pierre et Marie Curie",https://www.wikidata.org/entity/Q96589832,Paris,https://www.wikidata.org/entity/Q90,75231
195095,655341,655341999981052,LARP4MOT,coordinator,999981052,King's College London,http://www.wikidata.org/entity/Q245247,KCL,HES,false,183454.8,United Kingdom,http://www.wikidata.org/entity/Q145,Strand Theater,https://www.wikidata.org/entity/Q43017274,London,https://www.wikidata.org/entity/Q84,WC2R 2LS
216873,773554,773554999985417,EcoStack,participant,999985417,Newcastle University,http://www.wikidata.org/entity/Q837164,UNEW,HES,false,880324,United Kingdom,http://www.wikidata.org/entity/Q145,King's Cinema,https://www.wikidata.org/entity/Q42047859,Newcastle upon Tyne,https://www.wikidata.org/entity/Q1425428,NE1 7RU
216873,773554,773554997826391,EcoStack,participant,997826391,University of Coimbra,http://www.wikidata.org/entity/Q368643,UNIVERSIDADE DE COIMBRA,HES,false,355939,Portugal,http://www.wikidata.org/entity/Q45,Paços da Universidade ou Paços das Escolas,https://www.wikidata.org/entity/Q66942404,Coimbra,https://www.wikidata.org/entity/Q45412,3001 451
197298,665851,665851999440762,GEDII,participant,999440762,Cranfield University,http://www.wikidata.org/entity/Q181177,CU,HES,true,141670.56,United Kingdom,http://www.wikidata.org/entity/Q145,"1, College Road",https://www.wikidata.org/entity/Q26543203,Cranfield,https://www.wikidata.org/entity/Q1522979,MK43 0AL
199135,687880,687880998267838,HIPERDIAS,participant,998267838,University of Limoges,http://www.wikidata.org/entity/Q2661290,UNILIM,HES,false,299500,France,http://www.wikidata.org/entity/Q142,Forum départemental des sciences de Villeneuve-d'Ascq,https://www.wikidata.org/entity/Q3078640,Limoges,https://www.wikidata.org/entity/Q45656,87032
199135,687880,687880999974747,HIPERDIAS,coordinator,999974747,University of Stuttgart,http://www.wikidata.org/entity/Q122453,USTUTT,HES,false,909187.5,Germany,http://www.wikidata.org/entity/Q183,Keplerstraße 7 Regensburg,https://www.wikidata.org/entity/Q41277167,Stuttgart,https://www.wikidata.org/entity/Q1022,70174
223064,867426,867426999455894,ABA-GrowthBalance,coordinator,999455894,Calouste Gulbenkian Foundation,http://www.wikidata.org/entity/Q3052794,FCG-IGC,REC,false,159815.04,Portugal,http://www.wikidata.org/entity/Q45,"Prédio na Avenida de Berna, 4-4B",https://www.wikidata.org/entity/Q98969079,Lisbon,https://www.wikidata.org/entity/Q597,1000
213458,771402,771402996479740,EPIDEMICSonCHIP,coordinator,996479740,Institute of Science and Technology,http://www.wikidata.org/entity/Q1665176,IST AUSTRIA,HES,false,1991564,Austria,http://www.wikidata.org/entity/Q40,Einstein1,https://www.wikidata.org/entity/Q76315242,Klosterneuburg,https://www.wikidata.org/entity/Q487522,3400
220341,805189,805189999520108,BABE,coordinator,999520108,Biology Centre,http://www.wikidata.org/entity/Q8310408,Biologicke centrum AV CR,REC,false,1455031.75,Czech Republic,http://www.wikidata.org/entity/Q213,kříž na Branišovské ulici,https://www.wikidata.org/entity/Q66163534,České Budějovice,https://www.wikidata.org/entity/Q16506,370 05
198835,690946,690946999978045,SexSeed,participant,999978045,NUI Galway,http://www.wikidata.org/entity/Q644478,NUI GALWAY,HES,false,117000,Ireland,http://www.wikidata.org/entity/Q27,Wolfson College,https://www.wikidata.org/entity/Q1244726,Galway,https://www.wikidata.org/entity/Q129610,H91
198835,690946,690946999894916,SexSeed,coordinator,999894916,University of Porto,http://www.wikidata.org/entity/Q1422903,UPORTO,HES,false,247500,Portugal,http://www.wikidata.org/entity/Q45,Cine-Teatro,https://www.wikidata.org/entity/Q37813302,Porto,https://www.wikidata.org/entity/Q36433,4099 002
205465,723906,723906999749610,Z-Fact0r,participant,999749610,Brunel University,http://www.wikidata.org/entity/Q932411,BUL,HES,false,717757.5,United Kingdom,http://www.wikidata.org/entity/Q145,"2, Bishop Lane",https://www.wikidata.org/entity/Q26492077,Uxbridge Alderglade,https://www.wikidata.org/entity/Q20713935,UB8 3PH
206312,709175,709175999975426,PaNDA,coordinator,999975426,University of Leeds,http://www.wikidata.org/entity/Q503424,UNIVLEEDS,HES,false,195454.8,United Kingdom,http://www.wikidata.org/entity/Q145,"53, Woodhouse Lane",https://www.wikidata.org/entity/Q26407920,Leeds,https://www.wikidata.org/entity/Q39121,LS2 9JT
225175,864242,864242986276892,SPARCs,participant,986276892,Leipzig,http://www.wikidata.org/entity/Q2079,CITY OF LEIPZIG,PUB,false,1230000,Germany,http://www.wikidata.org/entity/Q183,Rathaus (Neues Rathaus (Leipzig)) Martin-Luther-Ring 4; 6,https://www.wikidata.org/entity/Q48200702,Leipzig,https://www.wikidata.org/entity/Q2079,04109
225175,864242,864242992400017,SPARCs,participant,992400017,Kone,http://www.wikidata.org/entity/Q1146592,KONE,PRC,false,776606.25,Finland,http://www.wikidata.org/entity/Q33,manor house in Munkkiniemi,https://www.wikidata.org/entity/Q15846535,Helsinki,https://www.wikidata.org/entity/Q1757,00331
229886,876124,876124999897729,BEYOND5,participant,999897729,TU Dresden,http://www.wikidata.org/entity/Q158158,TUD,HES,false,439400.06,Germany,http://www.wikidata.org/entity/Q183,Mietshaus Helmholtzstraße 10,https://www.wikidata.org/entity/Q49257829,Dresden,https://www.wikidata.org/entity/Q1731,01069
225666,873086,873086999976978,ConnectedFactories 2,participant,999976978,University of Nottingham,http://www.wikidata.org/entity/Q472316,UoN,HES,false,86000,United Kingdom,http://www.wikidata.org/entity/Q145,University Park,https://www.wikidata.org/entity/Q7894858,Nottingham,https://www.wikidata.org/entity/Q41262,NG7 2RD
198787,681002,681002999974553,EU-ToxRisk,coordinator,999974553,Leiden University,http://www.wikidata.org/entity/Q156598,ULEI,HES,false,4897069.5,Netherlands,http://www.wikidata.org/entity/Q55,"Rapenburg 70-74, Leiden",https://www.wikidata.org/entity/Q17339242,Leiden,https://www.wikidata.org/entity/Q33456378,2311 EZ
198787,681002,681002999866883,EU-ToxRisk,participant,999866883,University of Vienna,http://www.wikidata.org/entity/Q165980,UNIVIE,HES,false,594061.05,Austria,http://www.wikidata.org/entity/Q40,"Universitätsring 12, Vienna",https://www.wikidata.org/entity/Q38073054,Vienna,https://www.wikidata.org/entity/Q1741,1010
198787,681002,681002999545328,EU-ToxRisk,participant,999545328,L'Oréal,http://www.wikidata.org/entity/Q156077,LOR,PRC,false,14440,France,http://www.wikidata.org/entity/Q142,"14 rue Royale, Paris",https://www.wikidata.org/entity/Q22924718,Paris,https://www.wikidata.org/entity/Q90,75008
198787,681002,681002999866204,EU-ToxRisk,participant,999866204,University of Konstanz,http://www.wikidata.org/entity/Q835440,UKON,HES,false,1408187.5,Germany,http://www.wikidata.org/entity/Q183,"Universitätsstraße 10, Vienna",https://www.wikidata.org/entity/Q38133626,Konstanz,https://www.wikidata.org/entity/Q3834,78464
198787,681002,681002999991334,EU-ToxRisk,participant,999991334,Katholieke Universiteit Leuven,http://www.wikidata.org/entity/Q833670,KU Leuven,HES,false,790690,Belgium,http://www.wikidata.org/entity/Q31,"Oude Raadhuis, Heenvliet",https://www.wikidata.org/entity/Q17615613,Leuven,https://www.wikidata.org/entity/Q118958,3000
220193,822735,822735999747670,TRIGGER,coordinator,999747670,Centre for European Policy Studies,http://www.wikidata.org/entity/Q918289,CEPS,REC,false,563062.5,Belgium,http://www.wikidata.org/entity/Q31,Hoekgebouw in neoclassicistische stijl,https://www.wikidata.org/entity/Q42416608,Brussels,https://www.wikidata.org/entity/Q239,1000
226514,871710,871710999636508,PHABULOUS,participant,999636508,European Photonics Industry Consortium,http://www.wikidata.org/entity/Q5412997,EPIC,OTH,false,407822.5,France,http://www.wikidata.org/entity/Q142,"9, rue Galilée",https://www.wikidata.org/entity/Q25271762,Paris,https://www.wikidata.org/entity/Q984459,75116
229354,945541,945541999976978,GAM-2020-ENG,participant,999976978,University of Nottingham,http://www.wikidata.org/entity/Q472316,UoN,HES,false,1093096.25,United Kingdom,http://www.wikidata.org/entity/Q145,University Park,https://www.wikidata.org/entity/Q7894858,Nottingham,https://www.wikidata.org/entity/Q41262,NG7 2RD
205444,723867,723867999978336,EMMC-CSA,participant,999978336,University of York,http://www.wikidata.org/entity/Q967165,UNIVERSITY OF YORK,HES,false,105000,United Kingdom,http://www.wikidata.org/entity/Q145,Heslington House,https://www.wikidata.org/entity/Q26554017,"South Bank, York",https://www.wikidata.org/entity/Q7566231,YO10 5DD
206077,731465,731465999761735,AQUARIUS,coordinator,999761735,Technikon (Austria),http://www.wikidata.org/entity/Q30285383,TECHNIKON,PRC,false,285125,Austria,http://www.wikidata.org/entity/Q40,"Burgplatz 3, Wiener Neustadt",https://www.wikidata.org/entity/Q37756034,Villach,https://www.wikidata.org/entity/Q483522,9500
225355,871573,871573999923337,DEL4ALL,participant,999923337,The Open University,http://www.wikidata.org/entity/Q2413375,OU,HES,false,194250,United Kingdom,http://www.wikidata.org/entity/Q145,Walton Hall,https://www.wikidata.org/entity/Q7966746,Milton Keynes,https://www.wikidata.org/entity/Q204234,MK7 6AA
216965,786993,786993984807924,SPIRIT,participant,984807924,Antwerp,http://www.wikidata.org/entity/Q12892,CITY OF ANTWERPEN,PUB,false,131113.13,Belgium,http://www.wikidata.org/entity/Q31,"Oude stadhuis, Schiedam",https://www.wikidata.org/entity/Q2058370,Antwerp,https://www.wikidata.org/entity/Q12892,2000
198360,680435,680435999990752,PERFoRM,participant,999990752,Loughborough University,http://www.wikidata.org/entity/Q1434547,LU,HES,false,381250,United Kingdom,http://www.wikidata.org/entity/Q145,"14, Ashby Road",https://www.wikidata.org/entity/Q26336460,Loughborough Gap,https://www.wikidata.org/entity/Q6686160,LE11 3TU
205762,723777,723777999976978,ConnectedFactories,participant,999976978,University of Nottingham,http://www.wikidata.org/entity/Q472316,UoN,HES,false,102250,United Kingdom,http://www.wikidata.org/entity/Q145,University Park,https://www.wikidata.org/entity/Q7894858,Nottingham,https://www.wikidata.org/entity/Q41262,NG7 2RD
225877,872570,872570997826391,KYKLOS 4.0,participant,997826391,University of Coimbra,http://www.wikidata.org/entity/Q368643,UNIVERSIDADE DE COIMBRA,HES,false,595625,Portugal,http://www.wikidata.org/entity/Q45,Paços da Universidade ou Paços das Escolas,https://www.wikidata.org/entity/Q66942404,Coimbra,https://www.wikidata.org/entity/Q45412,3001 451
210834,755330,755330999612161,NOMAD,participant,999612161,Coventry University,http://www.wikidata.org/entity/Q1138080,COVENTRY UNIVERSITY,HES,false,328247.5,United Kingdom,http://www.wikidata.org/entity/Q145,"6, Priory Street",https://www.wikidata.org/entity/Q26340152,Coventry,https://www.wikidata.org/entity/Q6225,CV1 5FB
225145,861316,861316999985417,Magicbullet Reloaded,participant,999985417,Newcastle University,http://www.wikidata.org/entity/Q837164,UNEW,HES,false,303172.56,United Kingdom,http://www.wikidata.org/entity/Q145,King's Cinema,https://www.wikidata.org/entity/Q42047859,Newcastle upon Tyne,https://www.wikidata.org/entity/Q1425428,NE1 7RU
210212,740560,740560959680462,ENTRAP,participant,959680462,Ministry of War,http://www.wikidata.org/entity/Q718044,NLMOD,PUB,false,83437.5,Netherlands,http://www.wikidata.org/entity/Q55,"Plein 46, Tiel",https://www.wikidata.org/entity/Q17443690,The Hague,https://www.wikidata.org/entity/Q36600,2511CR
210212,740560,740560999832351,ENTRAP,participant,999832351,Home Office,http://www.wikidata.org/entity/Q763388,CAST,PUB,false,156922.75,United Kingdom,http://www.wikidata.org/entity/Q145,2 Marsham Street,https://www.wikidata.org/entity/Q4633348,London,https://www.wikidata.org/entity/Q84,SW1P 4DF
193285,634415,634415999992110,PoC-ID,participant,999992110,Stichting Katholieke Universiteit,http://www.wikidata.org/entity/Q1939260,RUMC,HES,false,693432.5,Netherlands,http://www.wikidata.org/entity/Q55,Huize Heijendaal,https://www.wikidata.org/entity/Q2548039,Nijmegen,https://www.wikidata.org/entity/Q13188714,6525 EZ
209742,727497,727497999974553,SiTaSol,participant,999974553,Leiden University,http://www.wikidata.org/entity/Q156598,ULEI,HES,false,280658.75,Netherlands,http://www.wikidata.org/entity/Q55,"Rapenburg 70-74, Leiden",https://www.wikidata.org/entity/Q17339242,Leiden,https://www.wikidata.org/entity/Q33456378,2311 EZ
223241,820937,820937998617135,REFLOW,participant,998617135,Amsterdam,http://www.wikidata.org/entity/Q9899,AMST,PUB,false,336250,Netherlands,http://www.wikidata.org/entity/Q55,Ostadetheater,https://www.wikidata.org/entity/Q2309296,Amsterdam,https://www.wikidata.org/entity/Q727,1011 PN
223241,820937,820937984550389,REFLOW,participant,984550389,Waag Society,http://www.wikidata.org/entity/Q15883644,Waag Society,REC,false,716250,Netherlands,http://www.wikidata.org/entity/Q55,"Nieuwmarkt 40, Amsterdam",https://www.wikidata.org/entity/Q17298129,Amsterdam,https://www.wikidata.org/entity/Q727,1012 CR
223241,820937,820937998498504,REFLOW,participant,998498504,Paris,http://www.wikidata.org/entity/Q90,VILLE DE PARIS,PUB,false,332500,France,http://www.wikidata.org/entity/Q142,"maison, 4 place de l'Hôtel-de-Ville",https://www.wikidata.org/entity/Q22915559,Paris,https://www.wikidata.org/entity/Q90,75004
230473,952911,952911968714072,BOOSTER,coordinator,968714072,Saint-Brieuc,http://www.wikidata.org/entity/Q29234,ARMOR,PRC,false,2086262.5,France,http://www.wikidata.org/entity/Q142,"hôtel de Flore, 20 rue Chevreul",https://www.wikidata.org/entity/Q22962135,Nantes,https://www.wikidata.org/entity/Q12191,44100
223249,820999,820999907312393,ARCH,participant,907312393,Camerino,http://www.wikidata.org/entity/Q73489,Camerino,PUB,false,156875,Italy,http://www.wikidata.org/entity/Q38,Corso Vittorio Emanuele II 12,https://www.wikidata.org/entity/Q64167885,studiolo,https://www.wikidata.org/entity/Q672603,62032
223249,820999,820999998928602,ARCH,participant,998928602,Hamburg,http://www.wikidata.org/entity/Q1055,FHH,PUB,false,353500,Germany,http://www.wikidata.org/entity/Q183,Rathausmarkt mit einfassender Bebauung,https://www.wikidata.org/entity/Q58398827,Hamburg,https://www.wikidata.org/entity/Q1055,20095
207075,737135,737135999981052,NANOARCHITECTRONICS,participant,999981052,King's College London,http://www.wikidata.org/entity/Q245247,KCL,HES,false,40000,United Kingdom,http://www.wikidata.org/entity/Q145,Strand Theater,https://www.wikidata.org/entity/Q43017274,London,https://www.wikidata.org/entity/Q84,WC2R 2LS
224298,833573,833573999915771,INCLUDING,participant,999915771,Università Cattolica del Sacro Cuore,http://www.wikidata.org/entity/Q229022,UCSC,HES,false,290625,Italy,http://www.wikidata.org/entity/Q38,EduCatt,https://www.wikidata.org/entity/Q19750507,Milan,https://www.wikidata.org/entity/Q490,20123
203400,692480,692480999897729,IoSense,participant,999897729,TU Dresden,http://www.wikidata.org/entity/Q158158,TUD,HES,false,267700,Germany,http://www.wikidata.org/entity/Q183,Mietshaus Helmholtzstraße 10,https://www.wikidata.org/entity/Q49257829,Dresden,https://www.wikidata.org/entity/Q1731,01069
227846,862410,862410999975620,HI-ACCURACY,participant,999975620,University College London,http://www.wikidata.org/entity/Q193196,UCL,HES,false,549945,United Kingdom,http://www.wikidata.org/entity/Q145,140 Gower Street,https://www.wikidata.org/entity/Q28803297,London,https://www.wikidata.org/entity/Q84,WC1E 6BT
209950,740575,740575973204396,FIRE-IN,participant,973204396,Swedish Civil Contingencies Agency,http://www.wikidata.org/entity/Q3430725,MSB THE SWEDISH CIVIL CONTINGENCIES AGENCY,PUB,true,51302.28,Sweden,http://www.wikidata.org/entity/Q34,Karolinenbad,https://www.wikidata.org/entity/Q1529106,Karlstadt am Main,https://www.wikidata.org/entity/Q507854,651 81
212445,776362,776362999893461,RadHard,participant,999893461,Umicore,http://www.wikidata.org/entity/Q902769,UMICORE,PRC,false,449870,Belgium,http://www.wikidata.org/entity/Q31,"Maison, 47 rue Holgate, Carentan",https://www.wikidata.org/entity/Q22963196,Brussels,https://www.wikidata.org/entity/Q239,1000
226332,881574,881574999540963,IN2SMART2,participant,999540963,Network Rail,http://www.wikidata.org/entity/Q1501071,NR,OTH,false,1044340,United Kingdom,http://www.wikidata.org/entity/Q145,"64, Eversholt Street",https://www.wikidata.org/entity/Q27084504,London,https://www.wikidata.org/entity/Q84,NW1 2DN
220959,825872,825872999840984,MyPal,participant,999840984,University of Lancaster,http://www.wikidata.org/entity/Q262854,Lancaster University,HES,false,293931.25,United Kingdom,http://www.wikidata.org/entity/Q145,Bailrigg House,https://www.wikidata.org/entity/Q26670743,Lancaster,https://www.wikidata.org/entity/Q205905,LA1 4YW
220959,825872,825872999929545,MyPal,participant,999929545,Saarland University,http://www.wikidata.org/entity/Q700758,USAAR,HES,false,316195,Germany,http://www.wikidata.org/entity/Q183,Flens-Arena,https://www.wikidata.org/entity/Q317391,Saarbrücken,https://www.wikidata.org/entity/Q1724,66123
230738,956977,956977949587321,Bio2Brain,participant,949587321,University of Applied Sciences Biberach,http://www.wikidata.org/entity/Q1622079,HBC,HES,false,505576.8,Germany,http://www.wikidata.org/entity/Q183,Bürgerhaus,https://www.wikidata.org/entity/Q41412050,Biberach an der Riss,https://www.wikidata.org/entity/Q16069,88400
205500,723425,723425999749610,GELCLAD,participant,999749610,Brunel University,http://www.wikidata.org/entity/Q932411,BUL,HES,false,693787.5,United Kingdom,http://www.wikidata.org/entity/Q145,"2, Bishop Lane",https://www.wikidata.org/entity/Q26492077,Uxbridge Alderglade,https://www.wikidata.org/entity/Q20713935,UB8 3PH
227847,862127,862127999840984,PhotoBoost,participant,999840984,University of Lancaster,http://www.wikidata.org/entity/Q262854,Lancaster University,HES,false,963045,United Kingdom,http://www.wikidata.org/entity/Q145,Bailrigg House,https://www.wikidata.org/entity/Q26670743,Lancaster,https://www.wikidata.org/entity/Q205905,LA1 4YW
219243,824007,824007999975620,iP-OSTEO,participant,999975620,University College London,http://www.wikidata.org/entity/Q193196,UCL,HES,false,115000,United Kingdom,http://www.wikidata.org/entity/Q145,140 Gower Street,https://www.wikidata.org/entity/Q28803297,London,https://www.wikidata.org/entity/Q84,WC1E 6BT
216945,770330,770330999859123,NoVaMigra,participant,999859123,University of Paris 1 Pantheon-Sorbonne,http://www.wikidata.org/entity/Q999763,UP1,HES,false,348416.25,France,http://www.wikidata.org/entity/Q142,Institut Cujas,https://www.wikidata.org/entity/Q49480190,Paris,https://www.wikidata.org/entity/Q90,75231
218546,813803,813803999894916,RE-CITY,participant,999894916,University of Porto,http://www.wikidata.org/entity/Q1422903,UPORTO,HES,false,475440.48,Portugal,http://www.wikidata.org/entity/Q45,Cine-Teatro,https://www.wikidata.org/entity/Q37813302,Porto,https://www.wikidata.org/entity/Q36433,4099 002
225808,870612,870612999895013,ySKILLS,participant,999895013,University of Tartu,http://www.wikidata.org/entity/Q204181,UNIVERSITY OF TARTU,HES,false,104700,Estonia,http://www.wikidata.org/entity/Q191,main building of the University of Tartu,https://www.wikidata.org/entity/Q11896548,Tartu,https://www.wikidata.org/entity/Q13972,51005
225808,870612,870612999861063,ySKILLS,participant,999861063,London School of Economics and Political Science,http://www.wikidata.org/entity/Q174570,LSE,HES,false,516596,United Kingdom,http://www.wikidata.org/entity/Q145,"1, 2 And 3, The Street",https://www.wikidata.org/entity/Q26591516,London,https://www.wikidata.org/entity/Q84,WC2A 2AE
225808,870612,870612999866883,ySKILLS,participant,999866883,University of Vienna,http://www.wikidata.org/entity/Q165980,UNIVIE,HES,false,221250,Austria,http://www.wikidata.org/entity/Q40,"Universitätsring 12, Vienna",https://www.wikidata.org/entity/Q38073054,Vienna,https://www.wikidata.org/entity/Q1741,1010
225808,870612,870612999991334,ySKILLS,coordinator,999991334,Katholieke Universiteit Leuven,http://www.wikidata.org/entity/Q833670,KU Leuven,HES,false,567250,Belgium,http://www.wikidata.org/entity/Q31,"Oude Raadhuis, Heenvliet",https://www.wikidata.org/entity/Q17615613,Leuven,https://www.wikidata.org/entity/Q118958,3000
225808,870612,870612999915771,ySKILLS,participant,999915771,Università Cattolica del Sacro Cuore,http://www.wikidata.org/entity/Q229022,UCSC,HES,false,178025,Italy,http://www.wikidata.org/entity/Q38,EduCatt,https://www.wikidata.org/entity/Q19750507,Milan,https://www.wikidata.org/entity/Q490,20123
197131,665822,665822999975523,QUANTEXBIO,coordinator,999975523,University of Dundee,http://www.wikidata.org/entity/Q1249005,UNIVDUN,HES,false,1674240,United Kingdom,http://www.wikidata.org/entity/Q145,Nethergate Hotel,https://www.wikidata.org/entity/Q17526573,Dundee,https://www.wikidata.org/entity/Q123709,DD1 4HN
220828,813036,813036999991334,ULTIMATE,participant,999991334,Katholieke Universiteit Leuven,http://www.wikidata.org/entity/Q833670,KU Leuven,HES,false,256320,Belgium,http://www.wikidata.org/entity/Q31,"Oude Raadhuis, Heenvliet",https://www.wikidata.org/entity/Q17615613,Leuven,https://www.wikidata.org/entity/Q118958,3000
220828,813036,813036999897729,ULTIMATE,participant,999897729,TU Dresden,http://www.wikidata.org/entity/Q158158,TUD,HES,false,758365.2,Germany,http://www.wikidata.org/entity/Q183,Mietshaus Helmholtzstraße 10,https://www.wikidata.org/entity/Q49257829,Dresden,https://www.wikidata.org/entity/Q1731,01069
223254,821003,821003999985611,4C,participant,999985611,University of East Anglia,http://www.wikidata.org/entity/Q1045828,UEA,HES,false,623870,United Kingdom,http://www.wikidata.org/entity/Q145,"4, Earlham Road",https://www.wikidata.org/entity/Q26653849,Norwich,https://www.wikidata.org/entity/Q130191,NR4 7TJ
223236,820712,820712999975426,RECEIPT,participant,999975426,University of Leeds,http://www.wikidata.org/entity/Q503424,UNIVLEEDS,HES,false,405903.75,United Kingdom,http://www.wikidata.org/entity/Q145,"53, Woodhouse Lane",https://www.wikidata.org/entity/Q26407920,Leeds,https://www.wikidata.org/entity/Q39121,LS2 9JT
230242,952384,952384999990752,EXtremeClimTwin,participant,999990752,Loughborough University,http://www.wikidata.org/entity/Q1434547,LU,HES,false,198302.5,United Kingdom,http://www.wikidata.org/entity/Q145,"14, Ashby Road",https://www.wikidata.org/entity/Q26336460,Loughborough Gap,https://www.wikidata.org/entity/Q6686160,LE11 3TU
205866,727524,727524999861063,ENABLE.EU,participant,999861063,London School of Economics and Political Science,http://www.wikidata.org/entity/Q174570,LSE,HES,false,230539.81,United Kingdom,http://www.wikidata.org/entity/Q145,"1, 2 And 3, The Street",https://www.wikidata.org/entity/Q26591516,London,https://www.wikidata.org/entity/Q84,WC2A 2AE
223242,820829,820829999975426,CONSTRAIN,coordinator,999975426,University of Leeds,http://www.wikidata.org/entity/Q503424,UNIVLEEDS,HES,false,1893367.15,United Kingdom,http://www.wikidata.org/entity/Q145,"53, Woodhouse Lane",https://www.wikidata.org/entity/Q26407920,Leeds,https://www.wikidata.org/entity/Q39121,LS2 9JT
200097,699523,699523999813727,JHEP2,participant,999813727,"Ministry of Education, Culture and Science",http://www.wikidata.org/entity/Q1049362,RCE,PUB,false,62506.15,Netherlands,http://www.wikidata.org/entity/Q55,"Rijnstraat 50, Katwijk",https://www.wikidata.org/entity/Q17410160,The Hague,https://www.wikidata.org/entity/Q36600,2500 BJ
200042,680088,680088999974165,SCHISTO_PERSIST,coordinator,999974165,University of Glasgow,http://www.wikidata.org/entity/Q192775,UGLA,HES,false,1490270,United Kingdom,http://www.wikidata.org/entity/Q145,54 University Avenue,https://www.wikidata.org/entity/Q24259376,Glasgow,https://www.wikidata.org/entity/Q4093,G12 8QQ
218610,822214,822214999991334,NeEDS,participant,999991334,Katholieke Universiteit Leuven,http://www.wikidata.org/entity/Q833670,KU Leuven,HES,false,303600,Belgium,http://www.wikidata.org/entity/Q31,"Oude Raadhuis, Heenvliet",https://www.wikidata.org/entity/Q17615613,Leuven,https://www.wikidata.org/entity/Q118958,3000
227128,871120,871120999876292,INTERACT,participant,999876292,University of South Bohemia in České Budějovice,http://www.wikidata.org/entity/Q1428711,JU,HES,false,44837.5,Czech Republic,http://www.wikidata.org/entity/Q213,kříž na Branišovské ulici,https://www.wikidata.org/entity/Q66163534,České Budějovice,https://www.wikidata.org/entity/Q16506,370 05
227128,871120,871120988542036,INTERACT,participant,988542036,Agricultural University of Iceland,http://www.wikidata.org/entity/Q3481997,LBHI,HES,false,9062.5,Iceland,http://www.wikidata.org/entity/Q189,Mjólkurskólinn á Hvanneyri og Hvítárvöllum,https://www.wikidata.org/entity/Q65336921,Borgarnes,https://www.wikidata.org/entity/Q276537,IS311
196807,641727,641727999975426,PRIMAVERA,participant,999975426,University of Leeds,http://www.wikidata.org/entity/Q503424,UNIVLEEDS,HES,false,464500,United Kingdom,http://www.wikidata.org/entity/Q145,"53, Woodhouse Lane",https://www.wikidata.org/entity/Q26407920,Leeds,https://www.wikidata.org/entity/Q39121,LS2 9JT
193710,640276,640276999901415,GAIA-CLIM,participant,999901415,Maynooth University,http://www.wikidata.org/entity/Q2601879,NUIM,HES,false,258250.48,Ireland,http://www.wikidata.org/entity/Q27,Kildare,https://www.wikidata.org/entity/Q97362296,Maynooth,https://www.wikidata.org/entity/Q750265,W23
212430,776186,776186999985611,CHE,participant,999985611,University of East Anglia,http://www.wikidata.org/entity/Q1045828,UEA,HES,false,250000,United Kingdom,http://www.wikidata.org/entity/Q145,"4, Earlham Road",https://www.wikidata.org/entity/Q26653849,Norwich,https://www.wikidata.org/entity/Q130191,NR4 7TJ
212430,776186,776186999985514,CHE,participant,999985514,University of Leicester,http://www.wikidata.org/entity/Q1333399,ULEIC,HES,false,50000,United Kingdom,http://www.wikidata.org/entity/Q145,Wolfson College,https://www.wikidata.org/entity/Q1244726,Leicester,https://www.wikidata.org/entity/Q83065,LE1 7RH
209664,752793,752793999979694,MMoBEER,coordinator,999979694,Cardiff University,http://www.wikidata.org/entity/Q1035745,CARDIFF UNIVERSITY,HES,false,195454.8,United Kingdom,http://www.wikidata.org/entity/Q145,"36, St John's Road",https://www.wikidata.org/entity/Q26646978,Cardiff,https://www.wikidata.org/entity/Q10690,CF24 ODE
195931,660349,660349999852721,SFSASP,coordinator,999852721,University of Sussex,http://www.wikidata.org/entity/Q1161297,UOS,HES,false,195454.8,United Kingdom,http://www.wikidata.org/entity/Q145,Mill House,https://www.wikidata.org/entity/Q26635951,Brighton,https://www.wikidata.org/entity/Q80047,BN1 9RH
201302,705190,705190999974165,NuSiCC,coordinator,999974165,University of Glasgow,http://www.wikidata.org/entity/Q192775,UGLA,HES,false,183454.8,United Kingdom,http://www.wikidata.org/entity/Q145,54 University Avenue,https://www.wikidata.org/entity/Q24259376,Glasgow,https://www.wikidata.org/entity/Q4093,G12 8QQ
224694,860002,860002999518362,ENHPATHY,participant,999518362,Royal Netherlands Academy of Arts and Sciences,http://www.wikidata.org/entity/Q253439,KNAW,OTH,false,265619.88,Netherlands,http://www.wikidata.org/entity/Q55,Trippenhuis,https://www.wikidata.org/entity/Q2252756,Amsterdam,https://www.wikidata.org/entity/Q727,1011 JV
195184,655864,655864999975329,SingMet,coordinator,999975329,University of Southampton,http://www.wikidata.org/entity/Q76473,SOUTHAMPTON,HES,false,183454.8,United Kingdom,http://www.wikidata.org/entity/Q145,Highfield,https://www.wikidata.org/entity/Q26281645,Southampton,https://www.wikidata.org/entity/Q79848,SO17 1BJ
223748,844564,844564999985514,OCHRE,coordinator,999985514,University of Leicester,http://www.wikidata.org/entity/Q1333399,ULEIC,HES,false,212933.76,United Kingdom,http://www.wikidata.org/entity/Q145,Wolfson College,https://www.wikidata.org/entity/Q1244726,Leicester,https://www.wikidata.org/entity/Q83065,LE1 7RH
230192,952194,952194999892588,LT-BRIDGE,participant,999892588,Dublin City University,http://www.wikidata.org/entity/Q1202897,DCU,HES,false,300400,Ireland,http://www.wikidata.org/entity/Q27,Glasnevin Cemetery,https://www.wikidata.org/entity/Q1263215,Dublin,https://www.wikidata.org/entity/Q1761,9
213831,790458,790458999974165,ELECTRO-POM,coordinator,999974165,University of Glasgow,http://www.wikidata.org/entity/Q192775,UGLA,HES,false,150000,United Kingdom,http://www.wikidata.org/entity/Q145,54 University Avenue,https://www.wikidata.org/entity/Q24259376,Glasgow,https://www.wikidata.org/entity/Q4093,G12 8QQ
220099,817639,817639999907914,BDE,coordinator,999907914,University of Basel,http://www.wikidata.org/entity/Q372608,UNIBAS,HES,false,1997510,Switzerland,http://www.wikidata.org/entity/Q39,Petersplatz 6,https://www.wikidata.org/entity/Q41259061,Basel,https://www.wikidata.org/entity/Q78,4051
202543,677270,677270999974165,SOCIAL ROBOTS,coordinator,999974165,University of Glasgow,http://www.wikidata.org/entity/Q192775,UGLA,HES,false,1623268,United Kingdom,http://www.wikidata.org/entity/Q145,54 University Avenue,https://www.wikidata.org/entity/Q24259376,Glasgow,https://www.wikidata.org/entity/Q4093,G12 8QQ
202543,677270,677270999823815,SOCIAL ROBOTS,participant,999823815,Bangor University,http://www.wikidata.org/entity/Q790029,BANGOR,HES,true,185732,United Kingdom,http://www.wikidata.org/entity/Q145,"1, College Road",https://www.wikidata.org/entity/Q26543203,Bangor,https://www.wikidata.org/entity/Q234178,LL57 2DG
193852,641805,641805999978336,NextGenVis,participant,999978336,University of York,http://www.wikidata.org/entity/Q967165,UNIVERSITY OF YORK,HES,false,546575.76,United Kingdom,http://www.wikidata.org/entity/Q145,Heslington House,https://www.wikidata.org/entity/Q26554017,"South Bank, York",https://www.wikidata.org/entity/Q7566231,YO10 5DD
211316,742204,742204999842730,ROCKY,participant,999842730,"City, University of London",http://www.wikidata.org/entity/Q1094046,CITY,HES,false,151403.75,United Kingdom,http://www.wikidata.org/entity/Q145,The Deco,https://www.wikidata.org/entity/Q31678475,London,https://www.wikidata.org/entity/Q84,EC1V 0HB
210360,754807,754807999976978,STIMULANT,coordinator,999976978,University of Nottingham,http://www.wikidata.org/entity/Q472316,UoN,HES,false,346412.5,United Kingdom,http://www.wikidata.org/entity/Q145,University Park,https://www.wikidata.org/entity/Q7894858,Nottingham,https://www.wikidata.org/entity/Q41262,NG7 2RD
198382,680735,680735999990752,openMOS,participant,999990752,Loughborough University,http://www.wikidata.org/entity/Q1434547,LU,HES,false,719250,United Kingdom,http://www.wikidata.org/entity/Q145,"14, Ashby Road",https://www.wikidata.org/entity/Q26336460,Loughborough Gap,https://www.wikidata.org/entity/Q6686160,LE11 3TU
198382,680735,680735989798089,openMOS,participant,989798089,Ford of Britain,http://www.wikidata.org/entity/Q860661,FORD,PRC,false,182769.38,United Kingdom,http://www.wikidata.org/entity/Q145,RotorWay 300T Eagle,https://www.wikidata.org/entity/Q7370580,Brentwood,https://www.wikidata.org/entity/Q846426,CM13 3BW
215942,774244,774244998289081,BRESOV,participant,998289081,University of Trás-os-Montes and Alto Douro,http://www.wikidata.org/entity/Q3309132,UTAD,HES,false,125000,Portugal,http://www.wikidata.org/entity/Q45,Casa e Quinta do Prado,https://www.wikidata.org/entity/Q97066142,Vila-real,https://www.wikidata.org/entity/Q12292,5000 911
218447,813439,813439999892588,BREAK BIOFILMS,participant,999892588,Dublin City University,http://www.wikidata.org/entity/Q1202897,DCU,HES,false,549368.64,Ireland,http://www.wikidata.org/entity/Q27,Glasnevin Cemetery,https://www.wikidata.org/entity/Q1263215,Dublin,https://www.wikidata.org/entity/Q1761,9
218447,813439,813439999848647,BREAK BIOFILMS,coordinator,999848647,University of Oviedo,http://www.wikidata.org/entity/Q2303432,UNIOVI,HES,false,501809.76,Spain,http://www.wikidata.org/entity/Q29,"San Frantzisko kalea, 3",https://www.wikidata.org/entity/Q66317932,Oviedo,https://www.wikidata.org/entity/Q1813449,33003
199194,691818,691818999895013,UPTAKE,coordinator,999895013,University of Tartu,http://www.wikidata.org/entity/Q204181,UNIVERSITY OF TARTU,HES,false,429510,Estonia,http://www.wikidata.org/entity/Q191,main building of the University of Tartu,https://www.wikidata.org/entity/Q11896548,Tartu,https://www.wikidata.org/entity/Q13972,51005
224417,840047,840047999975329,SOFIE,coordinator,999975329,University of Southampton,http://www.wikidata.org/entity/Q76473,SOUTHAMPTON,HES,false,224933.76,United Kingdom,http://www.wikidata.org/entity/Q145,Highfield,https://www.wikidata.org/entity/Q26281645,Southampton,https://www.wikidata.org/entity/Q79848,SO17 1BJ
195549,658085,658085999974165,DAMAGE,coordinator,999974165,University of Glasgow,http://www.wikidata.org/entity/Q192775,UGLA,HES,false,183454.8,United Kingdom,http://www.wikidata.org/entity/Q145,54 University Avenue,https://www.wikidata.org/entity/Q24259376,Glasgow,https://www.wikidata.org/entity/Q4093,G12 8QQ
206770,734486,734486999862033,SAFE-Aqua,participant,999862033,Swansea University,http://www.wikidata.org/entity/Q1420500,PRIFYSGOL ABERTAWE,HES,false,252000,United Kingdom,http://www.wikidata.org/entity/Q145,"North Lodge of Singleton Park, Gower Road(S Side)",https://www.wikidata.org/entity/Q29490131,Swansea,https://www.wikidata.org/entity/Q23051,SA2 8PP
200289,678193,678193999978045,CERES,participant,999978045,NUI Galway,http://www.wikidata.org/entity/Q644478,NUI GALWAY,HES,false,200000,Ireland,http://www.wikidata.org/entity/Q27,Wolfson College,https://www.wikidata.org/entity/Q1244726,Galway,https://www.wikidata.org/entity/Q129610,H91
200289,678193,678193999903743,CERES,participant,999903743,University of Hull,http://www.wikidata.org/entity/Q1474019,UHULL,HES,false,309850,United Kingdom,http://www.wikidata.org/entity/Q145,"91 93 And 95, Cottingham Road",https://www.wikidata.org/entity/Q26584676,Kingston upon Hull,https://www.wikidata.org/entity/Q128147,HU6 7RX
195044,655100,655100999979694,AdaptClim,coordinator,999979694,Cardiff University,http://www.wikidata.org/entity/Q1035745,CARDIFF UNIVERSITY,HES,false,183454.8,United Kingdom,http://www.wikidata.org/entity/Q145,"36, St John's Road",https://www.wikidata.org/entity/Q26646978,Cardiff,https://www.wikidata.org/entity/Q10690,CF24 ODE
208489,727073,727073999433681,FRAME,participant,999433681,London Business School,http://www.wikidata.org/entity/Q1481050,LBS,HES,false,173201.25,United Kingdom,http://www.wikidata.org/entity/Q145,Regent's Park tube station,https://www.wikidata.org/entity/Q1259474,London,https://www.wikidata.org/entity/Q84,NW1 4SA
199179,688265,688265999636508,MIRPHAB,participant,999636508,European Photonics Industry Consortium,http://www.wikidata.org/entity/Q5412997,EPIC,OTH,false,409370.63,France,http://www.wikidata.org/entity/Q142,"9, rue Galilée",https://www.wikidata.org/entity/Q25271762,Paris,https://www.wikidata.org/entity/Q984459,75116
206352,731954,731954999636508,PIXAPP,participant,999636508,European Photonics Industry Consortium,http://www.wikidata.org/entity/Q5412997,EPIC,OTH,false,488250,France,http://www.wikidata.org/entity/Q142,"9, rue Galilée",https://www.wikidata.org/entity/Q25271762,Paris,https://www.wikidata.org/entity/Q984459,75116
193470,637178,637178999990752,Co-FACTOR,participant,999990752,Loughborough University,http://www.wikidata.org/entity/Q1434547,LU,HES,false,35750,United Kingdom,http://www.wikidata.org/entity/Q145,"14, Ashby Road",https://www.wikidata.org/entity/Q26336460,Loughborough Gap,https://www.wikidata.org/entity/Q6686160,LE11 3TU
199854,688095,688095999975329,SlideWiki,participant,999975329,University of Southampton,http://www.wikidata.org/entity/Q76473,SOUTHAMPTON,HES,false,611905,United Kingdom,http://www.wikidata.org/entity/Q145,Highfield,https://www.wikidata.org/entity/Q26281645,Southampton,https://www.wikidata.org/entity/Q79848,SO17 1BJ
199854,688095,688095999923337,SlideWiki,participant,999923337,The Open University,http://www.wikidata.org/entity/Q2413375,OU,HES,false,811947.5,United Kingdom,http://www.wikidata.org/entity/Q145,Walton Hall,https://www.wikidata.org/entity/Q7966746,Milton Keynes,https://www.wikidata.org/entity/Q204234,MK7 6AA
194630,649875,649875995137648,BRISKEE,participant,995137648,Chambre de commerce et d'industrie de Grenoble,http://www.wikidata.org/entity/Q2948223,CCIG,HES,false,241562,France,http://www.wikidata.org/entity/Q142,"1 à 3 avenue de l'Opéra, 1-5 place André Malraux, 6-10 rue de l'Echelle",https://www.wikidata.org/entity/Q20650582,Grenoble,https://www.wikidata.org/entity/Q1289,38016
194630,649875,649875999979694,BRISKEE,participant,999979694,Cardiff University,http://www.wikidata.org/entity/Q1035745,CARDIFF UNIVERSITY,HES,false,60340,United Kingdom,http://www.wikidata.org/entity/Q145,"36, St John's Road",https://www.wikidata.org/entity/Q26646978,Cardiff,https://www.wikidata.org/entity/Q10690,CF24 ODE
226518,871764,871764999974165,SEQUENCE,participant,999974165,University of Glasgow,http://www.wikidata.org/entity/Q192775,UGLA,HES,false,239570,United Kingdom,http://www.wikidata.org/entity/Q145,54 University Avenue,https://www.wikidata.org/entity/Q24259376,Glasgow,https://www.wikidata.org/entity/Q4093,G12 8QQ
212820,760173,760173999975620,MarketPlace,participant,999975620,University College London,http://www.wikidata.org/entity/Q193196,UCL,HES,false,500067.5,United Kingdom,http://www.wikidata.org/entity/Q145,140 Gower Street,https://www.wikidata.org/entity/Q28803297,London,https://www.wikidata.org/entity/Q84,WC1E 6BT
226682,874764,874764999518362,REANIMA,participant,999518362,Royal Netherlands Academy of Arts and Sciences,http://www.wikidata.org/entity/Q253439,KNAW,OTH,false,780000,Netherlands,http://www.wikidata.org/entity/Q55,Trippenhuis,https://www.wikidata.org/entity/Q2252756,Amsterdam,https://www.wikidata.org/entity/Q727,1011 JV
226682,874764,874764999981052,REANIMA,participant,999981052,King's College London,http://www.wikidata.org/entity/Q245247,KCL,HES,false,780000,United Kingdom,http://www.wikidata.org/entity/Q145,Strand Theater,https://www.wikidata.org/entity/Q43017274,London,https://www.wikidata.org/entity/Q84,WC2R 2LS
198771,680633,680633999791029,BEinCPPS,participant,999791029,TTTech Computertechnik (Austria),http://www.wikidata.org/entity/Q30285483,TTTECH,PRC,false,213500,Austria,http://www.wikidata.org/entity/Q40,Wohnhaus der sogenannten „Kalichschen Gartennehrung“ ohne Saalanbau (ehemalige Schankwirtschaft Max Harnapp) Schönbrunner Straße 7,https://www.wikidata.org/entity/Q49398610,Vienna,https://www.wikidata.org/entity/Q1741,1040
223646,826417,826417999848647,Power2Power,participant,999848647,University of Oviedo,http://www.wikidata.org/entity/Q2303432,UNIOVI,HES,false,180559.31,Spain,http://www.wikidata.org/entity/Q29,"San Frantzisko kalea, 3",https://www.wikidata.org/entity/Q66317932,Oviedo,https://www.wikidata.org/entity/Q1813449,33003
223646,826417,826417999897729,Power2Power,participant,999897729,TU Dresden,http://www.wikidata.org/entity/Q158158,TUD,HES,false,337363.69,Germany,http://www.wikidata.org/entity/Q183,Mietshaus Helmholtzstraße 10,https://www.wikidata.org/entity/Q49257829,Dresden,https://www.wikidata.org/entity/Q1731,01069
225980,875557,875557999893461,SOLiDIFY,participant,999893461,Umicore,http://www.wikidata.org/entity/Q902769,UMICORE,PRC,false,355421.25,Belgium,http://www.wikidata.org/entity/Q31,"Maison, 47 rue Holgate, Carentan",https://www.wikidata.org/entity/Q22963196,Brussels,https://www.wikidata.org/entity/Q239,1000
219473,825143,825143968714072,Smart2Go,participant,968714072,Saint-Brieuc,http://www.wikidata.org/entity/Q29234,ARMOR,PRC,false,350000,France,http://www.wikidata.org/entity/Q142,"hôtel de Flore, 20 rue Chevreul",https://www.wikidata.org/entity/Q22962135,Nantes,https://www.wikidata.org/entity/Q12191,44100
219473,825143,825143999975329,Smart2Go,participant,999975329,University of Southampton,http://www.wikidata.org/entity/Q76473,SOUTHAMPTON,HES,false,220003.75,United Kingdom,http://www.wikidata.org/entity/Q145,Highfield,https://www.wikidata.org/entity/Q26281645,Southampton,https://www.wikidata.org/entity/Q79848,SO17 1BJ
200297,689648,689648999974553,MICA,participant,999974553,Leiden University,http://www.wikidata.org/entity/Q156598,ULEI,HES,false,151081.25,Netherlands,http://www.wikidata.org/entity/Q55,"Rapenburg 70-74, Leiden",https://www.wikidata.org/entity/Q17339242,Leiden,https://www.wikidata.org/entity/Q33456378,2311 EZ
200297,689648,689648999975620,MICA,participant,999975620,University College London,http://www.wikidata.org/entity/Q193196,UCL,HES,false,56000,United Kingdom,http://www.wikidata.org/entity/Q145,140 Gower Street,https://www.wikidata.org/entity/Q28803297,London,https://www.wikidata.org/entity/Q84,WC1E 6BT
209462,115976,115976999975620,PHAGO,participant,999975620,University College London,http://www.wikidata.org/entity/Q193196,UCL,HES,false,994143.75,United Kingdom,http://www.wikidata.org/entity/Q145,140 Gower Street,https://www.wikidata.org/entity/Q28803297,London,https://www.wikidata.org/entity/Q84,WC1E 6BT
209462,115976,115976999981052,PHAGO,participant,999981052,King's College London,http://www.wikidata.org/entity/Q245247,KCL,HES,false,1115000,United Kingdom,http://www.wikidata.org/entity/Q145,Strand Theater,https://www.wikidata.org/entity/Q43017274,London,https://www.wikidata.org/entity/Q84,WC2R 2LS
196890,653522,653522999903840,RESIN,participant,999903840,University of Manchester,http://www.wikidata.org/entity/Q230899,UNIVERSITY OF MANCHESTER,HES,false,865735,United Kingdom,http://www.wikidata.org/entity/Q145,"5, Oxford Road",https://www.wikidata.org/entity/Q26488918,Manchester,https://www.wikidata.org/entity/Q18125,M13 9PL
228601,862617,862617999440762,MULTI-FUN,participant,999440762,Cranfield University,http://www.wikidata.org/entity/Q181177,CU,HES,false,832328.75,United Kingdom,http://www.wikidata.org/entity/Q145,"1, College Road",https://www.wikidata.org/entity/Q26543203,Cranfield,https://www.wikidata.org/entity/Q1522979,MK43 0AL
211689,767498,767498999839238,MIDIH,participant,999839238,Technical University of Košice,http://www.wikidata.org/entity/Q1719038,TECHNICAL UNIVERSITY OF KOSICE,HES,false,133750,Slovakia,http://www.wikidata.org/entity/Q214,Restaurace Letná,https://www.wikidata.org/entity/Q30872033,Košice,https://www.wikidata.org/entity/Q25409,042 00
211689,767498,767498999974068,MIDIH,participant,999974068,University of Strathclyde,http://www.wikidata.org/entity/Q1859178,USTRAT,HES,false,202555,United Kingdom,http://www.wikidata.org/entity/Q145,15 Richmond Street,https://www.wikidata.org/entity/Q61039527,Glasgow,https://www.wikidata.org/entity/Q4093,G1 1XQ
226897,875692,875692999975426,Apollo,coordinator,999975426,University of Leeds,http://www.wikidata.org/entity/Q503424,UNIVLEEDS,HES,false,150000,United Kingdom,http://www.wikidata.org/entity/Q145,"53, Woodhouse Lane",https://www.wikidata.org/entity/Q26407920,Leeds,https://www.wikidata.org/entity/Q39121,LS2 9JT
228946,896942,896942999862033,METASINK,coordinator,999862033,Swansea University,http://www.wikidata.org/entity/Q1420500,PRIFYSGOL ABERTAWE,HES,false,224933.76,United Kingdom,http://www.wikidata.org/entity/Q145,"North Lodge of Singleton Park, Gower Road(S Side)",https://www.wikidata.org/entity/Q29490131,Swansea,https://www.wikidata.org/entity/Q23051,SA2 8PP
215112,792967,792967999903840,GraFrontLev,coordinator,999903840,University of Manchester,http://www.wikidata.org/entity/Q230899,UNIVERSITY OF MANCHESTER,HES,false,183454.8,United Kingdom,http://www.wikidata.org/entity/Q145,"5, Oxford Road",https://www.wikidata.org/entity/Q26488918,Manchester,https://www.wikidata.org/entity/Q18125,M13 9PL
193937,642663,642663999892588,eCHO Systems,participant,999892588,Dublin City University,http://www.wikidata.org/entity/Q1202897,DCU,HES,false,797023.8,Ireland,http://www.wikidata.org/entity/Q27,Glasnevin Cemetery,https://www.wikidata.org/entity/Q1263215,Dublin,https://www.wikidata.org/entity/Q1761,9
204128,682161,682161999901609,MorphoNotch,coordinator,999901609,Tel Aviv University,http://www.wikidata.org/entity/Q319239,TAU,HES,false,2000000,Israel,http://www.wikidata.org/entity/Q801,Ramat Aviv Mall,https://www.wikidata.org/entity/Q12066847,Tel Aviv,https://www.wikidata.org/entity/Q33935,69978
200858,699275,699275999840984,OptiFrame,coordinator,999840984,University of Lancaster,http://www.wikidata.org/entity/Q262854,Lancaster University,HES,false,405170,United Kingdom,http://www.wikidata.org/entity/Q145,Bailrigg House,https://www.wikidata.org/entity/Q26670743,Lancaster,https://www.wikidata.org/entity/Q205905,LA1 4YW
198840,691095,691095999907526,NANOGENTOOLS,participant,999907526,University of Birmingham,http://www.wikidata.org/entity/Q223429,UoB,HES,false,112500,United Kingdom,http://www.wikidata.org/entity/Q145,ABC Edgbaston,https://www.wikidata.org/entity/Q38690552,Birmingham,https://www.wikidata.org/entity/Q2256,B15 2TT
198840,691095,691095998959642,NANOGENTOOLS,coordinator,998959642,University of Burgos,http://www.wikidata.org/entity/Q1510657,UBU,HES,false,139500,Spain,http://www.wikidata.org/entity/Q29,Hospital del Rey,https://www.wikidata.org/entity/Q9004968,Burgos,https://www.wikidata.org/entity/Q9580,09001
198840,691095,691095999905392,NANOGENTOOLS,participant,999905392,University of Eastern Piedmont,http://www.wikidata.org/entity/Q1235561,UPO,HES,false,94500,Italy,http://www.wikidata.org/entity/Q38,Duomo metro station,https://www.wikidata.org/entity/Q2519375,Vercelli Homilies,https://www.wikidata.org/entity/Q7921000,13100
195254,656349,656349999897729,IPBMNES,coordinator,999897729,TU Dresden,http://www.wikidata.org/entity/Q158158,TUD,HES,false,171460.8,Germany,http://www.wikidata.org/entity/Q183,Mietshaus Helmholtzstraße 10,https://www.wikidata.org/entity/Q49257829,Dresden,https://www.wikidata.org/entity/Q1731,01069
199761,668863,668863999974553,SyBil-AA,participant,999974553,Leiden University,http://www.wikidata.org/entity/Q156598,ULEI,HES,false,250000,Netherlands,http://www.wikidata.org/entity/Q55,"Rapenburg 70-74, Leiden",https://www.wikidata.org/entity/Q17339242,Leiden,https://www.wikidata.org/entity/Q33456378,2311 EZ
199761,668863,668863999846222,SyBil-AA,participant,999846222,Ben-Gurion University of the Negev,http://www.wikidata.org/entity/Q737332,BGU,HES,false,259252.5,Israel,http://www.wikidata.org/entity/Q801,radix character,https://www.wikidata.org/entity/Q6575377,Beersheba,https://www.wikidata.org/entity/Q41843,84105
199761,668863,668863999852721,SyBil-AA,participant,999852721,University of Sussex,http://www.wikidata.org/entity/Q1161297,UOS,HES,false,449943.75,United Kingdom,http://www.wikidata.org/entity/Q145,Mill House,https://www.wikidata.org/entity/Q26635951,Brighton,https://www.wikidata.org/entity/Q80047,BN1 9RH
227173,851752,851752999902870,CELLULO-EPI,coordinator,999902870,University of Antwerp,http://www.wikidata.org/entity/Q175241,UANTWERPEN,HES,false,1499734,Belgium,http://www.wikidata.org/entity/Q31,"Willinge Prinsstraat 13, Oldeberkoop",https://www.wikidata.org/entity/Q17438664,Antwerp,https://www.wikidata.org/entity/Q12892,2000
206041,701246,701246999979694,USEMITE,coordinator,999979694,Cardiff University,http://www.wikidata.org/entity/Q1035745,CARDIFF UNIVERSITY,HES,false,183454.8,United Kingdom,http://www.wikidata.org/entity/Q145,"36, St John's Road",https://www.wikidata.org/entity/Q26646978,Cardiff,https://www.wikidata.org/entity/Q10690,CF24 ODE
209182,743521,743521999979694,ASISA,coordinator,999979694,Cardiff University,http://www.wikidata.org/entity/Q1035745,CARDIFF UNIVERSITY,HES,false,183454.8,United Kingdom,http://www.wikidata.org/entity/Q145,"36, St John's Road",https://www.wikidata.org/entity/Q26646978,Cardiff,https://www.wikidata.org/entity/Q10690,CF24 ODE
223197,815180,815180999974068,ELEMENT,participant,999974068,University of Strathclyde,http://www.wikidata.org/entity/Q1859178,USTRAT,HES,false,397310,United Kingdom,http://www.wikidata.org/entity/Q145,15 Richmond Street,https://www.wikidata.org/entity/Q61039527,Glasgow,https://www.wikidata.org/entity/Q4093,G1 1XQ
226333,881782,881782999975426,RAILS,participant,999975426,University of Leeds,http://www.wikidata.org/entity/Q503424,UNIVLEEDS,HES,false,107818.75,United Kingdom,http://www.wikidata.org/entity/Q145,"53, Woodhouse Lane",https://www.wikidata.org/entity/Q26407920,Leeds,https://www.wikidata.org/entity/Q39121,LS2 9JT
230403,899840,899840999975329,MOLEGAZER,coordinator,999975329,University of Southampton,http://www.wikidata.org/entity/Q76473,SOUTHAMPTON,HES,false,150000,United Kingdom,http://www.wikidata.org/entity/Q145,Highfield,https://www.wikidata.org/entity/Q26281645,Southampton,https://www.wikidata.org/entity/Q79848,SO17 1BJ
199097,688865,688865999612161,WhoLoDancE,participant,999612161,Coventry University,http://www.wikidata.org/entity/Q1138080,COVENTRY UNIVERSITY,HES,false,312460,United Kingdom,http://www.wikidata.org/entity/Q145,"6, Priory Street",https://www.wikidata.org/entity/Q26340152,Coventry,https://www.wikidata.org/entity/Q6225,CV1 5FB
197349,671672,671672999589657,SELFNET,participant,999589657,University of the West of Scotland,http://www.wikidata.org/entity/Q1296153,UNIVERSITY OF THE WEST OF SCOTLAND,HES,false,750476,United Kingdom,http://www.wikidata.org/entity/Q145,High Street,https://www.wikidata.org/entity/Q2612899,Paisley,https://www.wikidata.org/entity/Q1022986,PA1 2BE
203242,681988,681988999897729,CSP-Infinity,coordinator,999897729,TU Dresden,http://www.wikidata.org/entity/Q158158,TUD,HES,false,1416250,Germany,http://www.wikidata.org/entity/Q183,Mietshaus Helmholtzstraße 10,https://www.wikidata.org/entity/Q49257829,Dresden,https://www.wikidata.org/entity/Q1731,01069
219700,824634,824634999842730,QUEST,participant,999842730,"City, University of London",http://www.wikidata.org/entity/Q1094046,CITY,HES,false,220017.5,United Kingdom,http://www.wikidata.org/entity/Q145,The Deco,https://www.wikidata.org/entity/Q31678475,London,https://www.wikidata.org/entity/Q84,EC1V 0HB
230924,952644,952644999995505,FISHY,participant,999995505,University of Minho,http://www.wikidata.org/entity/Q29673,UMINHO,HES,false,260000,Portugal,http://www.wikidata.org/entity/Q45,Largo do Paço,https://www.wikidata.org/entity/Q88812727,Braga,https://www.wikidata.org/entity/Q83247,4704 553
212306,758053,758053996479740,QUNNECT,coordinator,996479740,Institute of Science and Technology,http://www.wikidata.org/entity/Q1665176,IST AUSTRIA,HES,false,1500000,Austria,http://www.wikidata.org/entity/Q40,Einstein1,https://www.wikidata.org/entity/Q76315242,Klosterneuburg,https://www.wikidata.org/entity/Q487522,3400
202099,696331,696331999842730,QDM,coordinator,999842730,"City, University of London",http://www.wikidata.org/entity/Q1094046,CITY,HES,false,195454.8,United Kingdom,http://www.wikidata.org/entity/Q145,The Deco,https://www.wikidata.org/entity/Q31678475,London,https://www.wikidata.org/entity/Q84,EC1V 0HB
230459,957216,957216999897729,iNGENIOUS,participant,999897729,TU Dresden,http://www.wikidata.org/entity/Q158158,TUD,HES,false,474250,Germany,http://www.wikidata.org/entity/Q183,Mietshaus Helmholtzstraße 10,https://www.wikidata.org/entity/Q49257829,Dresden,https://www.wikidata.org/entity/Q1731,01069
206101,730817,730817964712434,GoSAFE RAIL,participant,964712434,Iarnród Éireann,http://www.wikidata.org/entity/Q73043,IARNROD EI,PRC,false,74375,Ireland,http://www.wikidata.org/entity/Q27,Dublin Connolly railway station,https://www.wikidata.org/entity/Q2543742,Dublin,https://www.wikidata.org/entity/Q1761,1
212323,759102,759102999901609,SVIS,coordinator,999901609,Tel Aviv University,http://www.wikidata.org/entity/Q319239,TAU,HES,false,1499528,Israel,http://www.wikidata.org/entity/Q801,Ramat Aviv Mall,https://www.wikidata.org/entity/Q12066847,Tel Aviv,https://www.wikidata.org/entity/Q33935,69978
210528,737494,737494999981246,MegaMaRt2,participant,999981246,Association pour la recherche et le développement des méthodes et processus industriels (France),http://www.wikidata.org/entity/Q20828322,ARMINES,REC,false,150762.5,France,http://www.wikidata.org/entity/Q142,Hôtel de Vendôme,https://www.wikidata.org/entity/Q772886,Paris,https://www.wikidata.org/entity/Q90,75272
224300,834455,834455999861063,LPIGMANN,coordinator,999861063,London School of Economics and Political Science,http://www.wikidata.org/entity/Q174570,LSE,HES,false,2175289,United Kingdom,http://www.wikidata.org/entity/Q145,"1, 2 And 3, The Street",https://www.wikidata.org/entity/Q26591516,London,https://www.wikidata.org/entity/Q84,WC2A 2AE
221764,810346,810346999989976,Natural BionicS,participant,999989976,Medical University of Vienna,http://www.wikidata.org/entity/Q700731,MUW,HES,false,3193976,Austria,http://www.wikidata.org/entity/Q40,Spitalgasse 23,https://www.wikidata.org/entity/Q41424995,Vienna,https://www.wikidata.org/entity/Q1741,1090
230768,955923,955923999991334,SSeCoID,participant,999991334,Katholieke Universiteit Leuven,http://www.wikidata.org/entity/Q833670,KU Leuven,HES,false,256320,Belgium,http://www.wikidata.org/entity/Q31,"Oude Raadhuis, Heenvliet",https://www.wikidata.org/entity/Q17615613,Leuven,https://www.wikidata.org/entity/Q118958,3000
194271,645011,645011999897729,SERECA,coordinator,999897729,TU Dresden,http://www.wikidata.org/entity/Q158158,TUD,HES,false,655937.5,Germany,http://www.wikidata.org/entity/Q183,Mietshaus Helmholtzstraße 10,https://www.wikidata.org/entity/Q49257829,Dresden,https://www.wikidata.org/entity/Q1731,01069
199103,688520,688520999923337,TeSLA,participant,999923337,The Open University,http://www.wikidata.org/entity/Q2413375,OU,HES,false,463797.5,United Kingdom,http://www.wikidata.org/entity/Q145,Walton Hall,https://www.wikidata.org/entity/Q7966746,Milton Keynes,https://www.wikidata.org/entity/Q204234,MK7 6AA
223267,821201,821201998928602,CIRCuIT,participant,998928602,Hamburg,http://www.wikidata.org/entity/Q1055,FHH,PUB,false,620500,Germany,http://www.wikidata.org/entity/Q183,Rathausmarkt mit einfassender Bebauung,https://www.wikidata.org/entity/Q58398827,Hamburg,https://www.wikidata.org/entity/Q1055,20095
223267,821201,821201912407706,CIRCuIT,participant,912407706,3D makeR Technologies,http://www.wikidata.org/entity/Q48251491,Maker,OTH,false,146250,Denmark,http://www.wikidata.org/entity/Q35,BLOX,https://www.wikidata.org/entity/Q56630063,Copenhagen,https://www.wikidata.org/entity/Q1748,1219
194144,644051,644051999847968,3D Tune-In,participant,999847968,De Montfort University,http://www.wikidata.org/entity/Q3551402,DMU,HES,false,103900,United Kingdom,http://www.wikidata.org/entity/Q145,The Gateway,https://www.wikidata.org/entity/Q5527230,Leicester,https://www.wikidata.org/entity/Q83065,LE1 9BH
194144,644051,644051999976978,3D Tune-In,participant,999976978,University of Nottingham,http://www.wikidata.org/entity/Q472316,UoN,HES,false,541375,United Kingdom,http://www.wikidata.org/entity/Q145,University Park,https://www.wikidata.org/entity/Q7894858,Nottingham,https://www.wikidata.org/entity/Q41262,NG7 2RD
199182,688403,688403999897729,TULIPP,participant,999897729,TU Dresden,http://www.wikidata.org/entity/Q158158,TUD,HES,false,406227.14,Germany,http://www.wikidata.org/entity/Q183,Mietshaus Helmholtzstraße 10,https://www.wikidata.org/entity/Q49257829,Dresden,https://www.wikidata.org/entity/Q1731,01069
230866,956369,956369999991334,SOUNDS,coordinator,999991334,Katholieke Universiteit Leuven,http://www.wikidata.org/entity/Q833670,KU Leuven,HES,false,1025280,Belgium,http://www.wikidata.org/entity/Q31,"Oude Raadhuis, Heenvliet",https://www.wikidata.org/entity/Q17615613,Leuven,https://www.wikidata.org/entity/Q118958,3000
230723,958450,958450999974747,BIMprove,participant,999974747,University of Stuttgart,http://www.wikidata.org/entity/Q122453,USTUTT,HES,false,324000,Germany,http://www.wikidata.org/entity/Q183,Keplerstraße 7 Regensburg,https://www.wikidata.org/entity/Q41277167,Stuttgart,https://www.wikidata.org/entity/Q1022,70174
194848,653323,653323999903840,C-BORD,participant,999903840,University of Manchester,http://www.wikidata.org/entity/Q230899,UNIVERSITY OF MANCHESTER,HES,false,491245,United Kingdom,http://www.wikidata.org/entity/Q145,"5, Oxford Road",https://www.wikidata.org/entity/Q26488918,Manchester,https://www.wikidata.org/entity/Q18125,M13 9PL
194406,645984,645984999974068,ERN,participant,999974068,University of Strathclyde,http://www.wikidata.org/entity/Q1859178,USTRAT,HES,false,152023.75,United Kingdom,http://www.wikidata.org/entity/Q145,15 Richmond Street,https://www.wikidata.org/entity/Q61039527,Glasgow,https://www.wikidata.org/entity/Q4093,G1 1XQ
193766,640954,640954999992110,GRACeFUL,participant,999992110,Stichting Katholieke Universiteit,http://www.wikidata.org/entity/Q1939260,RUMC,HES,false,156225,Netherlands,http://www.wikidata.org/entity/Q55,Huize Heijendaal,https://www.wikidata.org/entity/Q2548039,Nijmegen,https://www.wikidata.org/entity/Q13188714,6525 EZ
193766,640954,640954999981246,GRACeFUL,participant,999981246,Association pour la recherche et le développement des méthodes et processus industriels (France),http://www.wikidata.org/entity/Q20828322,ARMINES,REC,false,350650,France,http://www.wikidata.org/entity/Q142,Hôtel de Vendôme,https://www.wikidata.org/entity/Q772886,Paris,https://www.wikidata.org/entity/Q90,75272
193766,640954,640954999991334,GRACeFUL,participant,999991334,Katholieke Universiteit Leuven,http://www.wikidata.org/entity/Q833670,KU Leuven,HES,false,361250,Belgium,http://www.wikidata.org/entity/Q31,"Oude Raadhuis, Heenvliet",https://www.wikidata.org/entity/Q17615613,Leuven,https://www.wikidata.org/entity/Q118958,3000
212582,730957,730957999975329,EnABLES,participant,999975329,University of Southampton,http://www.wikidata.org/entity/Q76473,SOUTHAMPTON,HES,false,295030,United Kingdom,http://www.wikidata.org/entity/Q145,Highfield,https://www.wikidata.org/entity/Q26281645,Southampton,https://www.wikidata.org/entity/Q79848,SO17 1BJ
229888,883242,883242999991334,ENSURESEC,participant,999991334,Katholieke Universiteit Leuven,http://www.wikidata.org/entity/Q833670,KU Leuven,HES,false,311500,Belgium,http://www.wikidata.org/entity/Q31,"Oude Raadhuis, Heenvliet",https://www.wikidata.org/entity/Q17615613,Leuven,https://www.wikidata.org/entity/Q118958,3000
200841,691685,691685999897729,REFLEX,coordinator,999897729,TU Dresden,http://www.wikidata.org/entity/Q158158,TUD,HES,false,405085,Germany,http://www.wikidata.org/entity/Q183,Mietshaus Helmholtzstraße 10,https://www.wikidata.org/entity/Q49257829,Dresden,https://www.wikidata.org/entity/Q1731,01069
229855,951998,951998999636508,PULSATE,participant,999636508,European Photonics Industry Consortium,http://www.wikidata.org/entity/Q5412997,EPIC,OTH,false,202500,France,http://www.wikidata.org/entity/Q142,"9, rue Galilée",https://www.wikidata.org/entity/Q25271762,Paris,https://www.wikidata.org/entity/Q984459,75116
205427,721452,721452999990752,SOLAR-TRAIN,participant,999990752,Loughborough University,http://www.wikidata.org/entity/Q1434547,LU,HES,false,819863.64,United Kingdom,http://www.wikidata.org/entity/Q145,"14, Ashby Road",https://www.wikidata.org/entity/Q26336460,Loughborough Gap,https://www.wikidata.org/entity/Q6686160,LE11 3TU
223820,846463,846463999991334,sEEnergies,participant,999991334,Katholieke Universiteit Leuven,http://www.wikidata.org/entity/Q833670,KU Leuven,HES,false,149272.5,Belgium,http://www.wikidata.org/entity/Q31,"Oude Raadhuis, Heenvliet",https://www.wikidata.org/entity/Q17615613,Leuven,https://www.wikidata.org/entity/Q118958,3000
196315,664331,664331999903646,InnoRenew CoE,participant,999903646,University of Maribor,http://www.wikidata.org/entity/Q1378,UM,HES,false,50000,Slovenia,http://www.wikidata.org/entity/Q215,Palača Slomškov trg 15,https://www.wikidata.org/entity/Q60347544,Maribor,https://www.wikidata.org/entity/Q1010,2000
230216,875508,875508999992110,PREMIER,coordinator,999992110,Stichting Katholieke Universiteit,http://www.wikidata.org/entity/Q1939260,RUMC,HES,false,755803,Netherlands,http://www.wikidata.org/entity/Q55,Huize Heijendaal,https://www.wikidata.org/entity/Q2548039,Nijmegen,https://www.wikidata.org/entity/Q13188714,6525 EZ
230216,875508,875508996544827,PREMIER,participant,996544827,Leuphana University of Lüneburg,http://www.wikidata.org/entity/Q505170,LEUPHANA,HES,false,199500,Germany,http://www.wikidata.org/entity/Q183,Scharnhorststraße 1,https://www.wikidata.org/entity/Q20754156,Lüneburg,https://www.wikidata.org/entity/Q3920,21335
230216,875508,875508999978336,PREMIER,participant,999978336,University of York,http://www.wikidata.org/entity/Q967165,UNIVERSITY OF YORK,HES,false,384836.25,United Kingdom,http://www.wikidata.org/entity/Q145,Heslington House,https://www.wikidata.org/entity/Q26554017,"South Bank, York",https://www.wikidata.org/entity/Q7566231,YO10 5DD
199190,688807,688807997826391,ColRobot,participant,997826391,University of Coimbra,http://www.wikidata.org/entity/Q368643,UNIVERSIDADE DE COIMBRA,HES,false,398922.5,Portugal,http://www.wikidata.org/entity/Q45,Paços da Universidade ou Paços das Escolas,https://www.wikidata.org/entity/Q66942404,Coimbra,https://www.wikidata.org/entity/Q45412,3001 451
198345,677660,677660999981246,JOIN-EM,participant,999981246,Association pour la recherche et le développement des méthodes et processus industriels (France),http://www.wikidata.org/entity/Q20828322,ARMINES,REC,false,238375,France,http://www.wikidata.org/entity/Q142,Hôtel de Vendôme,https://www.wikidata.org/entity/Q772886,Paris,https://www.wikidata.org/entity/Q90,75272
210840,755500,755500999974747,ADVISE,participant,999974747,University of Stuttgart,http://www.wikidata.org/entity/Q122453,USTUTT,HES,false,94687,Germany,http://www.wikidata.org/entity/Q183,Keplerstraße 7 Regensburg,https://www.wikidata.org/entity/Q41277167,Stuttgart,https://www.wikidata.org/entity/Q1022,70174
199204,687931,687931999974165,REMINDER,participant,999974165,University of Glasgow,http://www.wikidata.org/entity/Q192775,UGLA,HES,false,350000,United Kingdom,http://www.wikidata.org/entity/Q145,54 University Avenue,https://www.wikidata.org/entity/Q24259376,Glasgow,https://www.wikidata.org/entity/Q4093,G12 8QQ
217925,813508,813508999975523,OpenDoTT,coordinator,999975523,University of Dundee,http://www.wikidata.org/entity/Q1249005,UNIVDUN,HES,false,1515862.8,United Kingdom,http://www.wikidata.org/entity/Q145,Nethergate Hotel,https://www.wikidata.org/entity/Q17526573,Dundee,https://www.wikidata.org/entity/Q123709,DD1 4HN
210289,745625,745625999440762,ROMEO,participant,999440762,Cranfield University,http://www.wikidata.org/entity/Q181177,CU,HES,true,40598.96,United Kingdom,http://www.wikidata.org/entity/Q145,"1, College Road",https://www.wikidata.org/entity/Q26543203,Cranfield,https://www.wikidata.org/entity/Q1522979,MK43 0AL
210289,745625,745625999974068,ROMEO,participant,999974068,University of Strathclyde,http://www.wikidata.org/entity/Q1859178,USTRAT,HES,false,536519.79,United Kingdom,http://www.wikidata.org/entity/Q145,15 Richmond Street,https://www.wikidata.org/entity/Q61039527,Glasgow,https://www.wikidata.org/entity/Q4093,G1 1XQ
194385,645759,645759999618660,WASTCArD,participant,999618660,Waterford Institute of Technology,http://www.wikidata.org/entity/Q7974025,WIT,HES,false,31500,Ireland,http://www.wikidata.org/entity/Q27,Cork Western Road railway station,https://www.wikidata.org/entity/Q5170831,Waterford,https://www.wikidata.org/entity/Q183551,X91
229407,885137,885137999895013,ANCESTORS,participant,999895013,University of Tartu,http://www.wikidata.org/entity/Q204181,UNIVERSITY OF TARTU,HES,false,690645,Estonia,http://www.wikidata.org/entity/Q191,main building of the University of Tartu,https://www.wikidata.org/entity/Q11896548,Tartu,https://www.wikidata.org/entity/Q13972,51005
207452,734342,734342998267838,AMITIE,coordinator,998267838,University of Limoges,http://www.wikidata.org/entity/Q2661290,UNILIM,HES,false,72000,France,http://www.wikidata.org/entity/Q142,Forum départemental des sciences de Villeneuve-d'Ascq,https://www.wikidata.org/entity/Q3078640,Limoges,https://www.wikidata.org/entity/Q45656,87032
230934,955520,955520999897729,DigitAlgaesation,participant,999897729,TU Dresden,http://www.wikidata.org/entity/Q158158,TUD,HES,false,252788.4,Germany,http://www.wikidata.org/entity/Q183,Mietshaus Helmholtzstraße 10,https://www.wikidata.org/entity/Q49257829,Dresden,https://www.wikidata.org/entity/Q1731,01069
229910,899814,899814999853400,Qurope,participant,999853400,Heriot-Watt University,http://www.wikidata.org/entity/Q1610024,HWU,HES,false,350000,United Kingdom,http://www.wikidata.org/entity/Q145,Hoyts Riccarton,https://www.wikidata.org/entity/Q37176006,Edinburgh,https://www.wikidata.org/entity/Q23436,EH14 4AS
229910,899814,899814999974747,Qurope,participant,999974747,University of Stuttgart,http://www.wikidata.org/entity/Q122453,USTUTT,HES,false,503750,Germany,http://www.wikidata.org/entity/Q183,Keplerstraße 7 Regensburg,https://www.wikidata.org/entity/Q41277167,Stuttgart,https://www.wikidata.org/entity/Q1022,70174
209135,722687,722687999901415,RAMP,participant,999901415,Maynooth University,http://www.wikidata.org/entity/Q2601879,NUIM,HES,false,398511.9,Ireland,http://www.wikidata.org/entity/Q27,Kildare,https://www.wikidata.org/entity/Q97362296,Maynooth,https://www.wikidata.org/entity/Q750265,W23
209135,722687,722687999975426,RAMP,participant,999975426,University of Leeds,http://www.wikidata.org/entity/Q503424,UNIVLEEDS,HES,false,546575.76,United Kingdom,http://www.wikidata.org/entity/Q145,"53, Woodhouse Lane",https://www.wikidata.org/entity/Q26407920,Leeds,https://www.wikidata.org/entity/Q39121,LS2 9JT
198326,676338,676338999995505,Tendon Therapy Train,participant,999995505,University of Minho,http://www.wikidata.org/entity/Q29673,UMINHO,HES,false,238356.36,Portugal,http://www.wikidata.org/entity/Q45,Largo do Paço,https://www.wikidata.org/entity/Q88812727,Braga,https://www.wikidata.org/entity/Q83247,4704 553
198326,676338,676338999978045,Tendon Therapy Train,coordinator,999978045,NUI Galway,http://www.wikidata.org/entity/Q644478,NUI GALWAY,HES,false,1062698.4,Ireland,http://www.wikidata.org/entity/Q27,Wolfson College,https://www.wikidata.org/entity/Q1244726,Galway,https://www.wikidata.org/entity/Q129610,H91
198326,676338,676338999840790,Tendon Therapy Train,participant,999840790,Royal Veterinary College,http://www.wikidata.org/entity/Q268411,RVC,HES,false,546575.76,United Kingdom,http://www.wikidata.org/entity/Q145,"91-99, Royal College Street",https://www.wikidata.org/entity/Q27083469,London,https://www.wikidata.org/entity/Q84,NW1 OTU
216110,783127,783127999897729,OCEAN12,participant,999897729,TU Dresden,http://www.wikidata.org/entity/Q158158,TUD,HES,false,414000.13,Germany,http://www.wikidata.org/entity/Q183,Mietshaus Helmholtzstraße 10,https://www.wikidata.org/entity/Q49257829,Dresden,https://www.wikidata.org/entity/Q1731,01069
214910,788047,788047999857086,RiConfigure,participant,999857086,Corvinus University of Budapest,http://www.wikidata.org/entity/Q851164,CORVINUS UNIVERSITY OF BUDAPEST,HES,false,132500,Hungary,http://www.wikidata.org/entity/Q28,"Main Custom House, Budapest",https://www.wikidata.org/entity/Q65680087,Budapest,https://www.wikidata.org/entity/Q1781,1093
199963,691876,691876998030091,SMARTER TOGETHER,participant,998030091,Vienna General Hospital,http://www.wikidata.org/entity/Q180080,Magistrat der Stadt Wien,PUB,false,2970032.5,Austria,http://www.wikidata.org/entity/Q40,Hamburg City Hall,https://www.wikidata.org/entity/Q3987,Vienna,https://www.wikidata.org/entity/Q1741,1082
199963,691876,691876997625601,SMARTER TOGETHER,participant,997625601,Department of Arts and Culture,http://www.wikidata.org/entity/Q1540396,MUNICH,PUB,false,2823833.75,Germany,http://www.wikidata.org/entity/Q183,Treppe Burgstraße 4,https://www.wikidata.org/entity/Q49365977,Munich,https://www.wikidata.org/entity/Q1726,80331
223410,847082,847082972778178,ODYSSEE-MURE,participant,972778178,Ministry of Economic Affairs and Climate Policy,http://www.wikidata.org/entity/Q2986560,EZ RVO,PUB,false,22970,Netherlands,http://www.wikidata.org/entity/Q55,"Bezuidenhoutseweg 73, The Hague",https://www.wikidata.org/entity/Q18812987,The Hague,https://www.wikidata.org/entity/Q36600,2595 AC
198078,661796,661796999761735,ADMONT,participant,999761735,Technikon (Austria),http://www.wikidata.org/entity/Q30285383,TECHNIKON,PRC,false,90194,Austria,http://www.wikidata.org/entity/Q40,"Burgplatz 3, Wiener Neustadt",https://www.wikidata.org/entity/Q37756034,Villach,https://www.wikidata.org/entity/Q483522,9500
216153,786805,786805959680462,EXERTER,participant,959680462,Ministry of War,http://www.wikidata.org/entity/Q718044,NLMOD,PUB,false,103275,Netherlands,http://www.wikidata.org/entity/Q55,"Plein 46, Tiel",https://www.wikidata.org/entity/Q17443690,The Hague,https://www.wikidata.org/entity/Q36600,2511CR
209952,740698,740698967944377,MARISA,participant,967944377,Ministry of Infrastructure and Water Management,http://www.wikidata.org/entity/Q2188136,ILT,PUB,false,195246.25,Netherlands,http://www.wikidata.org/entity/Q55,Rijnstraat 8,https://www.wikidata.org/entity/Q21592547,The Hague,https://www.wikidata.org/entity/Q36600,2500 EX
209952,740698,740698960510394,MARISA,participant,960510394,Ministry of Armed Forces,http://www.wikidata.org/entity/Q75706,IT-CC,PUB,false,253125,Italy,http://www.wikidata.org/entity/Q38,Via XX Settembre 8,https://www.wikidata.org/entity/Q64011431,Rome,https://www.wikidata.org/entity/Q220,00187
229699,876852,876852999901415,VALU3S,participant,999901415,Maynooth University,http://www.wikidata.org/entity/Q2601879,NUIM,HES,false,152554.5,Ireland,http://www.wikidata.org/entity/Q27,Kildare,https://www.wikidata.org/entity/Q97362296,Maynooth,https://www.wikidata.org/entity/Q750265,W23
229699,876852,876852997826391,VALU3S,participant,997826391,University of Coimbra,http://www.wikidata.org/entity/Q368643,UNIVERSIDADE DE COIMBRA,HES,false,84000,Portugal,http://www.wikidata.org/entity/Q45,Paços da Universidade ou Paços das Escolas,https://www.wikidata.org/entity/Q66942404,Coimbra,https://www.wikidata.org/entity/Q45412,3001 451
220184,814654,814654999975426,MDOT,participant,999975426,University of Leeds,http://www.wikidata.org/entity/Q503424,UNIVLEEDS,HES,false,510582.5,United Kingdom,http://www.wikidata.org/entity/Q145,"53, Woodhouse Lane",https://www.wikidata.org/entity/Q26407920,Leeds,https://www.wikidata.org/entity/Q39121,LS2 9JT
220184,814654,814654999975329,MDOT,participant,999975329,University of Southampton,http://www.wikidata.org/entity/Q76473,SOUTHAMPTON,HES,false,546610,United Kingdom,http://www.wikidata.org/entity/Q145,Highfield,https://www.wikidata.org/entity/Q26281645,Southampton,https://www.wikidata.org/entity/Q79848,SO17 1BJ
219988,814471,814471999440762,LISA,participant,999440762,Cranfield University,http://www.wikidata.org/entity/Q181177,CU,HES,false,465851.25,United Kingdom,http://www.wikidata.org/entity/Q145,"1, College Road",https://www.wikidata.org/entity/Q26543203,Cranfield,https://www.wikidata.org/entity/Q1522979,MK43 0AL
219988,814471,814471999897729,LISA,participant,999897729,TU Dresden,http://www.wikidata.org/entity/Q158158,TUD,HES,false,303473.75,Germany,http://www.wikidata.org/entity/Q183,Mietshaus Helmholtzstraße 10,https://www.wikidata.org/entity/Q49257829,Dresden,https://www.wikidata.org/entity/Q1731,01069
196896,653824,653824999452208,EU-CIRCLE,participant,999452208,University of Huddersfield,http://www.wikidata.org/entity/Q3056815,HUD,HES,false,116880.51,United Kingdom,http://www.wikidata.org/entity/Q145,"37, Queensgate",https://www.wikidata.org/entity/Q26525061,Huddersfield,https://www.wikidata.org/entity/Q201812,HD1 3DH
196896,653824,653824999829441,EU-CIRCLE,participant,999829441,University of Salford,http://www.wikidata.org/entity/Q2738622,USAL,HES,false,249881.36,United Kingdom,http://www.wikidata.org/entity/Q145,43 Lansdowne Crescent,https://www.wikidata.org/entity/Q17811739,Salford,https://www.wikidata.org/entity/Q47952,M5 4WT
213055,779373,779373999897729,MiLEDI,participant,999897729,TU Dresden,http://www.wikidata.org/entity/Q158158,TUD,HES,false,454412.5,Germany,http://www.wikidata.org/entity/Q183,Mietshaus Helmholtzstraße 10,https://www.wikidata.org/entity/Q49257829,Dresden,https://www.wikidata.org/entity/Q1731,01069
197934,671553,671553999903840,ExaNeSt,participant,999903840,University of Manchester,http://www.wikidata.org/entity/Q230899,UNIVERSITY OF MANCHESTER,HES,false,719422.5,United Kingdom,http://www.wikidata.org/entity/Q145,"5, Oxford Road",https://www.wikidata.org/entity/Q26488918,Manchester,https://www.wikidata.org/entity/Q18125,M13 9PL
197934,671553,671553968966466,ExaNeSt,participant,968966466,Virtual Open Systems (France),http://www.wikidata.org/entity/Q30292539,VOSYS,PRC,false,450000,France,http://www.wikidata.org/entity/Q142,"Immeuble, 2 rue Lakanal, Sarlat-la-Canéda",https://www.wikidata.org/entity/Q22988038,Grenoble,https://www.wikidata.org/entity/Q1289,38000
194878,653626,653626952694910,microMole,participant,952694910,Centralne Laboratorium Kryminalistyczne Policji,http://www.wikidata.org/entity/Q30261001,CLKP,REC,false,283511,Poland,http://www.wikidata.org/entity/Q36,Aleje Ujazdowskie 7,https://www.wikidata.org/entity/Q33532585,Warsaw,https://www.wikidata.org/entity/Q270,00-583
197114,664526,664526999897729,SlovakION,participant,999897729,TU Dresden,http://www.wikidata.org/entity/Q158158,TUD,HES,false,14375,Germany,http://www.wikidata.org/entity/Q183,Mietshaus Helmholtzstraße 10,https://www.wikidata.org/entity/Q49257829,Dresden,https://www.wikidata.org/entity/Q1731,01069
216315,801060,801060999974165,Q-MIC,participant,999974165,University of Glasgow,http://www.wikidata.org/entity/Q192775,UGLA,HES,false,452987.5,United Kingdom,http://www.wikidata.org/entity/Q145,54 University Avenue,https://www.wikidata.org/entity/Q24259376,Glasgow,https://www.wikidata.org/entity/Q4093,G12 8QQ
207883,720838,720838999907526,NEOHIRE,participant,999907526,University of Birmingham,http://www.wikidata.org/entity/Q223429,UoB,HES,false,804568.75,United Kingdom,http://www.wikidata.org/entity/Q145,ABC Edgbaston,https://www.wikidata.org/entity/Q38690552,Birmingham,https://www.wikidata.org/entity/Q2256,B15 2TT
207883,720838,720838999991334,NEOHIRE,participant,999991334,Katholieke Universiteit Leuven,http://www.wikidata.org/entity/Q833670,KU Leuven,HES,false,698000,Belgium,http://www.wikidata.org/entity/Q31,"Oude Raadhuis, Heenvliet",https://www.wikidata.org/entity/Q17615613,Leuven,https://www.wikidata.org/entity/Q118958,3000
197909,665948,665948996842326,CIMULACT,participant,996842326,Norwegian Board of Technology,http://www.wikidata.org/entity/Q52844509,NBT,PUB,false,100875,Norway,http://www.wikidata.org/entity/Q20,Sandefjord sjøfartsmuseum,https://www.wikidata.org/entity/Q67620341,Oslo,https://www.wikidata.org/entity/Q585,0152
205991,732482,732482999897729,Bio4Comp,participant,999897729,TU Dresden,http://www.wikidata.org/entity/Q158158,TUD,HES,false,1190688,Germany,http://www.wikidata.org/entity/Q183,Mietshaus Helmholtzstraße 10,https://www.wikidata.org/entity/Q49257829,Dresden,https://www.wikidata.org/entity/Q1731,01069
226008,875029,875029998267838,ASTRABAT,participant,998267838,University of Limoges,http://www.wikidata.org/entity/Q2661290,UNILIM,HES,false,461751.25,France,http://www.wikidata.org/entity/Q142,Forum départemental des sciences de Villeneuve-d'Ascq,https://www.wikidata.org/entity/Q3078640,Limoges,https://www.wikidata.org/entity/Q45656,87032
226008,875029,875029999893461,ASTRABAT,participant,999893461,Umicore,http://www.wikidata.org/entity/Q902769,UMICORE,PRC,false,290918.75,Belgium,http://www.wikidata.org/entity/Q31,"Maison, 47 rue Holgate, Carentan",https://www.wikidata.org/entity/Q22963196,Brussels,https://www.wikidata.org/entity/Q239,1000
205360,707922,707922999985417,Pectin,coordinator,999985417,Newcastle University,http://www.wikidata.org/entity/Q837164,UNEW,HES,false,195454.8,United Kingdom,http://www.wikidata.org/entity/Q145,King's Cinema,https://www.wikidata.org/entity/Q42047859,Newcastle upon Tyne,https://www.wikidata.org/entity/Q1425428,NE1 7RU
217956,765423,765423999974165,MANNA,coordinator,999974165,University of Glasgow,http://www.wikidata.org/entity/Q192775,UGLA,HES,false,546575.76,United Kingdom,http://www.wikidata.org/entity/Q145,54 University Avenue,https://www.wikidata.org/entity/Q24259376,Glasgow,https://www.wikidata.org/entity/Q4093,G12 8QQ
213918,772705,772705998463002,NEFERTITI,participant,998463002,Instituto Superior de Agronomia,http://www.wikidata.org/entity/Q10302684,ISA,HES,false,125905,Portugal,http://www.wikidata.org/entity/Q45,Astronomical Observatory of Lisbon,https://www.wikidata.org/entity/Q2065139,Lisbon,https://www.wikidata.org/entity/Q597,1349 017
207875,716485,716485999861063,HETEROPOLIS,coordinator,999861063,London School of Economics and Political Science,http://www.wikidata.org/entity/Q174570,LSE,HES,false,1497505,United Kingdom,http://www.wikidata.org/entity/Q145,"1, 2 And 3, The Street",https://www.wikidata.org/entity/Q26591516,London,https://www.wikidata.org/entity/Q84,WC2A 2AE
231417,958410,958410999991334,E2COMATION,participant,999991334,Katholieke Universiteit Leuven,http://www.wikidata.org/entity/Q833670,KU Leuven,HES,false,501120,Belgium,http://www.wikidata.org/entity/Q31,"Oude Raadhuis, Heenvliet",https://www.wikidata.org/entity/Q17615613,Leuven,https://www.wikidata.org/entity/Q118958,3000
211210,116074,116074999907526,BigData Heart,participant,999907526,University of Birmingham,http://www.wikidata.org/entity/Q223429,UoB,HES,false,200000,United Kingdom,http://www.wikidata.org/entity/Q145,ABC Edgbaston,https://www.wikidata.org/entity/Q38690552,Birmingham,https://www.wikidata.org/entity/Q2256,B15 2TT
